{
"type": "FeatureCollection",
"name": "tile_list",
"crs": { "type": "name", "properties": { "name": "urn:ogc:def:crs:OGC:1.3:CRS84" } },
"features": [
{ "type": "Feature", "properties": { "row": 0, "col": 0 }, "geometry": { "type": "Polygon", "coordinates": [ [ [ -170.0, -90.0 ], [ -170.0, -80.0 ], [ -180.0, -80.0 ], [ -180.0, -90.0 ], [ -170.0, -90.0 ] ] ] } },
{ "type": "Feature", "properties": { "row": 0, "col": 1 }, "geometry": { "type": "Polygon", "coordinates": [ [ [ -160.0, -90.0 ], [ -160.0, -80.0 ], [ -170.0, -80.0 ], [ -170.0, -90.0 ], [ -160.0, -90.0 ] ] ] } },
{ "type": "Feature", "properties": { "row": 0, "col": 2 }, "geometry": { "type": "Polygon", "coordinates": [ [ [ -150.0, -90.0 ], [ -150.0, -80.0 ], [ -160.0, -80.0 ], [ -160.0, -90.0 ], [ -150.0, -90.0 ] ] ] } },
{ "type": "Feature", "properties": { "row": 0, "col": 3 }, "geometry": { "type": "Polygon", "coordinates": [ [ [ -140.0, -90.0 ], [ -140.0, -80.0 ], [ -150.0, -80.0 ], [ -150.0, -90.0 ], [ -140.0, -90.0 ] ] ] } },
{ "type": "Feature", "properties": { "row": 0, "col": 4 }, "geometry": { "type": "Polygon", "coordinates": [ [ [ -130.0, -90.0 ], [ -130.0, -80.0 ], [ -140.0, -80.0 ], [ -140.0, -90.0 ], [ -130.0, -90.0 ] ] ] } },
{ "type": "Feature", "properties": { "row": 0, "col": 5 }, "geometry": { "type": "Polygon", "coordinates": [ [ [ -120.0, -90.0 ], [ -120.0, -80.0 ], [ -130.0, -80.0 ], [ -130.0, -90.0 ], [ -120.0, -90.0 ] ] ] } },
{ "type": "Feature", "properties": { "row": 0, "col": 6 }, "geometry": { "type": "Polygon", "coordinates": [ [ [ -110.0, -90.0 ], [ -110.0, -80.0 ], [ -120.0, -80.0 ], [ -120.0, -90.0 ], [ -110.0, -90.0 ] ] ] } },
{ "type": "Feature", "properties": { "row": 0, "col": 7 }, "geometry": { "type": "Polygon", "coordinates": [ [ [ -100.0, -90.0 ], [ -100.0, -80.0 ], [ -110.0, -80.0 ], [ -110.0, -90.0 ], [ -100.0, -90.0 ] ] ] } },
{ "type": "Feature", "properties": { "row": 0, "col": 8 }, "geometry": { "type": "Polygon", "coordinates": [ [ [ -90.0, -90.0 ], [ -90.0, -80.0 ], [ -100.0, -80.0 ], [ -100.0, -90.0 ], [ -90.0, -90.0 ] ] ] } },
{ "type": "Feature", "properties": { "row": 0, "col": 9 }, "geometry": { "type": "Polygon", "coordinates": [ [ [ -80.0, -90.0 ], [ -80.0, -80.0 ], [ -90.0, -80.0 ], [ -90.0, -90.0 ], [ -80.0, -90.0 ] ] ] } },
{ "type": "Feature", "properties": { "row": 0, "col": 10 }, "geometry": { "type": "Polygon", "coordinates": [ [ [ -70.0, -90.0 ], [ -70.0, -80.0 ], [ -80.0, -80.0 ], [ -80.0, -90.0 ], [ -70.0, -90.0 ] ] ] } },
{ "type": "Feature", "properties": { "row": 0, "col": 11 }, "geometry": { "type": "Polygon", "coordinates": [ [ [ -60.0, -90.0 ], [ -60.0, -80.0 ], [ -70.0, -80.0 ], [ -70.0, -90.0 ], [ -60.0, -90.0 ] ] ] } },
{ "type": "Feature", "properties": { "row": 0, "col": 12 }, "geometry": { "type": "Polygon", "coordinates": [ [ [ -50.0, -90.0 ], [ -50.0, -80.0 ], [ -60.0, -80.0 ], [ -60.0, -90.0 ], [ -50.0, -90.0 ] ] ] } },
{ "type": "Feature", "properties": { "row": 0, "col": 13 }, "geometry": { "type": "Polygon", "coordinates": [ [ [ -40.0, -90.0 ], [ -40.0, -80.0 ], [ -50.0, -80.0 ], [ -50.0, -90.0 ], [ -40.0, -90.0 ] ] ] } },
{ "type": "Feature", "properties": { "row": 0, "col": 14 }, "geometry": { "type": "Polygon", "coordinates": [ [ [ -30.0, -90.0 ], [ -30.0, -80.0 ], [ -40.0, -80.0 ], [ -40.0, -90.0 ], [ -30.0, -90.0 ] ] ] } },
{ "type": "Feature", "properties": { "row": 0, "col": 15 }, "geometry": { "type": "Polygon", "coordinates": [ [ [ -20.0, -90.0 ], [ -20.0, -80.0 ], [ -30.0, -80.0 ], [ -30.0, -90.0 ], [ -20.0, -90.0 ] ] ] } },
{ "type": "Feature", "properties": { "row": 0, "col": 16 }, "geometry": { "type": "Polygon", "coordinates": [ [ [ -10.0, -90.0 ], [ -10.0, -80.0 ], [ -20.0, -80.0 ], [ -20.0, -90.0 ], [ -10.0, -90.0 ] ] ] } },
{ "type": "Feature", "properties": { "row": 0, "col": 17 }, "geometry": { "type": "Polygon", "coordinates": [ [ [ 0.0, -90.0 ], [ 0.0, -80.0 ], [ -10.0, -80.0 ], [ -10.0, -90.0 ], [ 0.0, -90.0 ] ] ] } },
{ "type": "Feature", "properties": { "row": 0, "col": 18 }, "geometry": { "type": "Polygon", "coordinates": [ [ [ 10.0, -90.0 ], [ 10.0, -80.0 ], [ 0.0, -80.0 ], [ 0.0, -90.0 ], [ 10.0, -90.0 ] ] ] } },
{ "type": "Feature", "properties": { "row": 0, "col": 19 }, "geometry": { "type": "Polygon", "coordinates": [ [ [ 20.0, -90.0 ], [ 20.0, -80.0 ], [ 10.0, -80.0 ], [ 10.0, -90.0 ], [ 20.0, -90.0 ] ] ] } },
{ "type": "Feature", "properties": { "row": 0, "col": 20 }, "geometry": { "type": "Polygon", "coordinates": [ [ [ 30.0, -90.0 ], [ 30.0, -80.0 ], [ 20.0, -80.0 ], [ 20.0, -90.0 ], [ 30.0, -90.0 ] ] ] } },
{ "type": "Feature", "properties": { "row": 0, "col": 21 }, "geometry": { "type": "Polygon", "coordinates": [ [ [ 40.0, -90.0 ], [ 40.0, -80.0 ], [ 30.0, -80.0 ], [ 30.0, -90.0 ], [ 40.0, -90.0 ] ] ] } },
{ "type": "Feature", "properties": { "row": 0, "col": 22 }, "geometry": { "type": "Polygon", "coordinates": [ [ [ 50.0, -90.0 ], [ 50.0, -80.0 ], [ 40.0, -80.0 ], [ 40.0, -90.0 ], [ 50.0, -90.0 ] ] ] } },
{ "type": "Feature", "properties": { "row": 0, "col": 23 }, "geometry": { "type": "Polygon", "coordinates": [ [ [ 60.0, -90.0 ], [ 60.0, -80.0 ], [ 50.0, -80.0 ], [ 50.0, -90.0 ], [ 60.0, -90.0 ] ] ] } },
{ "type": "Feature", "properties": { "row": 0, "col": 24 }, "geometry": { "type": "Polygon", "coordinates": [ [ [ 70.0, -90.0 ], [ 70.0, -80.0 ], [ 60.0, -80.0 ], [ 60.0, -90.0 ], [ 70.0, -90.0 ] ] ] } },
{ "type": "Feature", "properties": { "row": 0, "col": 25 }, "geometry": { "type": "Polygon", "coordinates": [ [ [ 80.0, -90.0 ], [ 80.0, -80.0 ], [ 70.0, -80.0 ], [ 70.0, -90.0 ], [ 80.0, -90.0 ] ] ] } },
{ "type": "Feature", "properties": { "row": 0, "col": 26 }, "geometry": { "type": "Polygon", "coordinates": [ [ [ 90.0, -90.0 ], [ 90.0, -80.0 ], [ 80.0, -80.0 ], [ 80.0, -90.0 ], [ 90.0, -90.0 ] ] ] } },
{ "type": "Feature", "properties": { "row": 0, "col": 27 }, "geometry": { "type": "Polygon", "coordinates": [ [ [ 100.0, -90.0 ], [ 100.0, -80.0 ], [ 90.0, -80.0 ], [ 90.0, -90.0 ], [ 100.0, -90.0 ] ] ] } },
{ "type": "Feature", "properties": { "row": 0, "col": 28 }, "geometry": { "type": "Polygon", "coordinates": [ [ [ 110.0, -90.0 ], [ 110.0, -80.0 ], [ 100.0, -80.0 ], [ 100.0, -90.0 ], [ 110.0, -90.0 ] ] ] } },
{ "type": "Feature", "properties": { "row": 0, "col": 29 }, "geometry": { "type": "Polygon", "coordinates": [ [ [ 120.0, -90.0 ], [ 120.0, -80.0 ], [ 110.0, -80.0 ], [ 110.0, -90.0 ], [ 120.0, -90.0 ] ] ] } },
{ "type": "Feature", "properties": { "row": 0, "col": 30 }, "geometry": { "type": "Polygon", "coordinates": [ [ [ 130.0, -90.0 ], [ 130.0, -80.0 ], [ 120.0, -80.0 ], [ 120.0, -90.0 ], [ 130.0, -90.0 ] ] ] } },
{ "type": "Feature", "properties": { "row": 0, "col": 31 }, "geometry": { "type": "Polygon", "coordinates": [ [ [ 140.0, -90.0 ], [ 140.0, -80.0 ], [ 130.0, -80.0 ], [ 130.0, -90.0 ], [ 140.0, -90.0 ] ] ] } },
{ "type": "Feature", "properties": { "row": 0, "col": 32 }, "geometry": { "type": "Polygon", "coordinates": [ [ [ 150.0, -90.0 ], [ 150.0, -80.0 ], [ 140.0, -80.0 ], [ 140.0, -90.0 ], [ 150.0, -90.0 ] ] ] } },
{ "type": "Feature", "properties": { "row": 0, "col": 33 }, "geometry": { "type": "Polygon", "coordinates": [ [ [ 160.0, -90.0 ], [ 160.0, -80.0 ], [ 150.0, -80.0 ], [ 150.0, -90.0 ], [ 160.0, -90.0 ] ] ] } },
{ "type": "Feature", "properties": { "row": 0, "col": 34 }, "geometry": { "type": "Polygon", "coordinates": [ [ [ 170.0, -90.0 ], [ 170.0, -80.0 ], [ 160.0, -80.0 ], [ 160.0, -90.0 ], [ 170.0, -90.0 ] ] ] } },
{ "type": "Feature", "properties": { "row": 0, "col": 35 }, "geometry": { "type": "Polygon", "coordinates": [ [ [ 180.0, -90.0 ], [ 180.0, -80.0 ], [ 170.0, -80.0 ], [ 170.0, -90.0 ], [ 180.0, -90.0 ] ] ] } },
{ "type": "Feature", "properties": { "row": 1, "col": 1 }, "geometry": { "type": "Polygon", "coordinates": [ [ [ -160.0, -80.0 ], [ -160.0, -70.0 ], [ -170.0, -70.0 ], [ -170.0, -80.0 ], [ -160.0, -80.0 ] ] ] } },
{ "type": "Feature", "properties": { "row": 1, "col": 2 }, "geometry": { "type": "Polygon", "coordinates": [ [ [ -150.0, -80.0 ], [ -150.0, -70.0 ], [ -160.0, -70.0 ], [ -160.0, -80.0 ], [ -150.0, -80.0 ] ] ] } },
{ "type": "Feature", "properties": { "row": 1, "col": 3 }, "geometry": { "type": "Polygon", "coordinates": [ [ [ -140.0, -80.0 ], [ -140.0, -70.0 ], [ -150.0, -70.0 ], [ -150.0, -80.0 ], [ -140.0, -80.0 ] ] ] } },
{ "type": "Feature", "properties": { "row": 1, "col": 4 }, "geometry": { "type": "Polygon", "coordinates": [ [ [ -130.0, -80.0 ], [ -130.0, -70.0 ], [ -140.0, -70.0 ], [ -140.0, -80.0 ], [ -130.0, -80.0 ] ] ] } },
{ "type": "Feature", "properties": { "row": 1, "col": 5 }, "geometry": { "type": "Polygon", "coordinates": [ [ [ -120.0, -80.0 ], [ -120.0, -70.0 ], [ -130.0, -70.0 ], [ -130.0, -80.0 ], [ -120.0, -80.0 ] ] ] } },
{ "type": "Feature", "properties": { "row": 1, "col": 6 }, "geometry": { "type": "Polygon", "coordinates": [ [ [ -110.0, -80.0 ], [ -110.0, -70.0 ], [ -120.0, -70.0 ], [ -120.0, -80.0 ], [ -110.0, -80.0 ] ] ] } },
{ "type": "Feature", "properties": { "row": 1, "col": 7 }, "geometry": { "type": "Polygon", "coordinates": [ [ [ -100.0, -80.0 ], [ -100.0, -70.0 ], [ -110.0, -70.0 ], [ -110.0, -80.0 ], [ -100.0, -80.0 ] ] ] } },
{ "type": "Feature", "properties": { "row": 1, "col": 8 }, "geometry": { "type": "Polygon", "coordinates": [ [ [ -90.0, -80.0 ], [ -90.0, -70.0 ], [ -100.0, -70.0 ], [ -100.0, -80.0 ], [ -90.0, -80.0 ] ] ] } },
{ "type": "Feature", "properties": { "row": 1, "col": 9 }, "geometry": { "type": "Polygon", "coordinates": [ [ [ -80.0, -80.0 ], [ -80.0, -70.0 ], [ -90.0, -70.0 ], [ -90.0, -80.0 ], [ -80.0, -80.0 ] ] ] } },
{ "type": "Feature", "properties": { "row": 1, "col": 10 }, "geometry": { "type": "Polygon", "coordinates": [ [ [ -70.0, -80.0 ], [ -70.0, -70.0 ], [ -80.0, -70.0 ], [ -80.0, -80.0 ], [ -70.0, -80.0 ] ] ] } },
{ "type": "Feature", "properties": { "row": 1, "col": 11 }, "geometry": { "type": "Polygon", "coordinates": [ [ [ -60.0, -80.0 ], [ -60.0, -70.0 ], [ -70.0, -70.0 ], [ -70.0, -80.0 ], [ -60.0, -80.0 ] ] ] } },
{ "type": "Feature", "properties": { "row": 1, "col": 12 }, "geometry": { "type": "Polygon", "coordinates": [ [ [ -50.0, -80.0 ], [ -50.0, -70.0 ], [ -60.0, -70.0 ], [ -60.0, -80.0 ], [ -50.0, -80.0 ] ] ] } },
{ "type": "Feature", "properties": { "row": 1, "col": 13 }, "geometry": { "type": "Polygon", "coordinates": [ [ [ -40.0, -80.0 ], [ -40.0, -70.0 ], [ -50.0, -70.0 ], [ -50.0, -80.0 ], [ -40.0, -80.0 ] ] ] } },
{ "type": "Feature", "properties": { "row": 1, "col": 14 }, "geometry": { "type": "Polygon", "coordinates": [ [ [ -30.0, -80.0 ], [ -30.0, -70.0 ], [ -40.0, -70.0 ], [ -40.0, -80.0 ], [ -30.0, -80.0 ] ] ] } },
{ "type": "Feature", "properties": { "row": 1, "col": 15 }, "geometry": { "type": "Polygon", "coordinates": [ [ [ -20.0, -80.0 ], [ -20.0, -70.0 ], [ -30.0, -70.0 ], [ -30.0, -80.0 ], [ -20.0, -80.0 ] ] ] } },
{ "type": "Feature", "properties": { "row": 1, "col": 16 }, "geometry": { "type": "Polygon", "coordinates": [ [ [ -10.0, -80.0 ], [ -10.0, -70.0 ], [ -20.0, -70.0 ], [ -20.0, -80.0 ], [ -10.0, -80.0 ] ] ] } },
{ "type": "Feature", "properties": { "row": 1, "col": 17 }, "geometry": { "type": "Polygon", "coordinates": [ [ [ 0.0, -80.0 ], [ 0.0, -70.0 ], [ -10.0, -70.0 ], [ -10.0, -80.0 ], [ 0.0, -80.0 ] ] ] } },
{ "type": "Feature", "properties": { "row": 1, "col": 18 }, "geometry": { "type": "Polygon", "coordinates": [ [ [ 10.0, -80.0 ], [ 10.0, -70.0 ], [ 0.0, -70.0 ], [ 0.0, -80.0 ], [ 10.0, -80.0 ] ] ] } },
{ "type": "Feature", "properties": { "row": 1, "col": 19 }, "geometry": { "type": "Polygon", "coordinates": [ [ [ 20.0, -80.0 ], [ 20.0, -70.0 ], [ 10.0, -70.0 ], [ 10.0, -80.0 ], [ 20.0, -80.0 ] ] ] } },
{ "type": "Feature", "properties": { "row": 1, "col": 20 }, "geometry": { "type": "Polygon", "coordinates": [ [ [ 30.0, -80.0 ], [ 30.0, -70.0 ], [ 20.0, -70.0 ], [ 20.0, -80.0 ], [ 30.0, -80.0 ] ] ] } },
{ "type": "Feature", "properties": { "row": 1, "col": 21 }, "geometry": { "type": "Polygon", "coordinates": [ [ [ 40.0, -80.0 ], [ 40.0, -70.0 ], [ 30.0, -70.0 ], [ 30.0, -80.0 ], [ 40.0, -80.0 ] ] ] } },
{ "type": "Feature", "properties": { "row": 1, "col": 22 }, "geometry": { "type": "Polygon", "coordinates": [ [ [ 50.0, -80.0 ], [ 50.0, -70.0 ], [ 40.0, -70.0 ], [ 40.0, -80.0 ], [ 50.0, -80.0 ] ] ] } },
{ "type": "Feature", "properties": { "row": 1, "col": 23 }, "geometry": { "type": "Polygon", "coordinates": [ [ [ 60.0, -80.0 ], [ 60.0, -70.0 ], [ 50.0, -70.0 ], [ 50.0, -80.0 ], [ 60.0, -80.0 ] ] ] } },
{ "type": "Feature", "properties": { "row": 1, "col": 24 }, "geometry": { "type": "Polygon", "coordinates": [ [ [ 70.0, -80.0 ], [ 70.0, -70.0 ], [ 60.0, -70.0 ], [ 60.0, -80.0 ], [ 70.0, -80.0 ] ] ] } },
{ "type": "Feature", "properties": { "row": 1, "col": 25 }, "geometry": { "type": "Polygon", "coordinates": [ [ [ 80.0, -80.0 ], [ 80.0, -70.0 ], [ 70.0, -70.0 ], [ 70.0, -80.0 ], [ 80.0, -80.0 ] ] ] } },
{ "type": "Feature", "properties": { "row": 1, "col": 26 }, "geometry": { "type": "Polygon", "coordinates": [ [ [ 90.0, -80.0 ], [ 90.0, -70.0 ], [ 80.0, -70.0 ], [ 80.0, -80.0 ], [ 90.0, -80.0 ] ] ] } },
{ "type": "Feature", "properties": { "row": 1, "col": 27 }, "geometry": { "type": "Polygon", "coordinates": [ [ [ 100.0, -80.0 ], [ 100.0, -70.0 ], [ 90.0, -70.0 ], [ 90.0, -80.0 ], [ 100.0, -80.0 ] ] ] } },
{ "type": "Feature", "properties": { "row": 1, "col": 28 }, "geometry": { "type": "Polygon", "coordinates": [ [ [ 110.0, -80.0 ], [ 110.0, -70.0 ], [ 100.0, -70.0 ], [ 100.0, -80.0 ], [ 110.0, -80.0 ] ] ] } },
{ "type": "Feature", "properties": { "row": 1, "col": 29 }, "geometry": { "type": "Polygon", "coordinates": [ [ [ 120.0, -80.0 ], [ 120.0, -70.0 ], [ 110.0, -70.0 ], [ 110.0, -80.0 ], [ 120.0, -80.0 ] ] ] } },
{ "type": "Feature", "properties": { "row": 1, "col": 30 }, "geometry": { "type": "Polygon", "coordinates": [ [ [ 130.0, -80.0 ], [ 130.0, -70.0 ], [ 120.0, -70.0 ], [ 120.0, -80.0 ], [ 130.0, -80.0 ] ] ] } },
{ "type": "Feature", "properties": { "row": 1, "col": 31 }, "geometry": { "type": "Polygon", "coordinates": [ [ [ 140.0, -80.0 ], [ 140.0, -70.0 ], [ 130.0, -70.0 ], [ 130.0, -80.0 ], [ 140.0, -80.0 ] ] ] } },
{ "type": "Feature", "properties": { "row": 1, "col": 32 }, "geometry": { "type": "Polygon", "coordinates": [ [ [ 150.0, -80.0 ], [ 150.0, -70.0 ], [ 140.0, -70.0 ], [ 140.0, -80.0 ], [ 150.0, -80.0 ] ] ] } },
{ "type": "Feature", "properties": { "row": 1, "col": 33 }, "geometry": { "type": "Polygon", "coordinates": [ [ [ 160.0, -80.0 ], [ 160.0, -70.0 ], [ 150.0, -70.0 ], [ 150.0, -80.0 ], [ 160.0, -80.0 ] ] ] } },
{ "type": "Feature", "properties": { "row": 1, "col": 34 }, "geometry": { "type": "Polygon", "coordinates": [ [ [ 170.0, -80.0 ], [ 170.0, -70.0 ], [ 160.0, -70.0 ], [ 160.0, -80.0 ], [ 170.0, -80.0 ] ] ] } },
{ "type": "Feature", "properties": { "row": 1, "col": 35 }, "geometry": { "type": "Polygon", "coordinates": [ [ [ 180.0, -80.0 ], [ 180.0, -70.0 ], [ 170.0, -70.0 ], [ 170.0, -80.0 ], [ 180.0, -80.0 ] ] ] } },
{ "type": "Feature", "properties": { "row": 2, "col": 10 }, "geometry": { "type": "Polygon", "coordinates": [ [ [ -70.0, -70.0 ], [ -70.0, -60.0 ], [ -80.0, -60.0 ], [ -80.0, -70.0 ], [ -70.0, -70.0 ] ] ] } },
{ "type": "Feature", "properties": { "row": 2, "col": 11 }, "geometry": { "type": "Polygon", "coordinates": [ [ [ -60.0, -70.0 ], [ -60.0, -60.0 ], [ -70.0, -60.0 ], [ -70.0, -70.0 ], [ -60.0, -70.0 ] ] ] } },
{ "type": "Feature", "properties": { "row": 2, "col": 12 }, "geometry": { "type": "Polygon", "coordinates": [ [ [ -50.0, -70.0 ], [ -50.0, -60.0 ], [ -60.0, -60.0 ], [ -60.0, -70.0 ], [ -50.0, -70.0 ] ] ] } },
{ "type": "Feature", "properties": { "row": 2, "col": 18 }, "geometry": { "type": "Polygon", "coordinates": [ [ [ 10.0, -70.0 ], [ 10.0, -60.0 ], [ 0.0, -60.0 ], [ 0.0, -70.0 ], [ 10.0, -70.0 ] ] ] } },
{ "type": "Feature", "properties": { "row": 2, "col": 19 }, "geometry": { "type": "Polygon", "coordinates": [ [ [ 20.0, -70.0 ], [ 20.0, -60.0 ], [ 10.0, -60.0 ], [ 10.0, -70.0 ], [ 20.0, -70.0 ] ] ] } },
{ "type": "Feature", "properties": { "row": 2, "col": 20 }, "geometry": { "type": "Polygon", "coordinates": [ [ [ 30.0, -70.0 ], [ 30.0, -60.0 ], [ 20.0, -60.0 ], [ 20.0, -70.0 ], [ 30.0, -70.0 ] ] ] } },
{ "type": "Feature", "properties": { "row": 2, "col": 21 }, "geometry": { "type": "Polygon", "coordinates": [ [ [ 40.0, -70.0 ], [ 40.0, -60.0 ], [ 30.0, -60.0 ], [ 30.0, -70.0 ], [ 40.0, -70.0 ] ] ] } },
{ "type": "Feature", "properties": { "row": 2, "col": 22 }, "geometry": { "type": "Polygon", "coordinates": [ [ [ 50.0, -70.0 ], [ 50.0, -60.0 ], [ 40.0, -60.0 ], [ 40.0, -70.0 ], [ 50.0, -70.0 ] ] ] } },
{ "type": "Feature", "properties": { "row": 2, "col": 23 }, "geometry": { "type": "Polygon", "coordinates": [ [ [ 60.0, -70.0 ], [ 60.0, -60.0 ], [ 50.0, -60.0 ], [ 50.0, -70.0 ], [ 60.0, -70.0 ] ] ] } },
{ "type": "Feature", "properties": { "row": 2, "col": 24 }, "geometry": { "type": "Polygon", "coordinates": [ [ [ 70.0, -70.0 ], [ 70.0, -60.0 ], [ 60.0, -60.0 ], [ 60.0, -70.0 ], [ 70.0, -70.0 ] ] ] } },
{ "type": "Feature", "properties": { "row": 2, "col": 25 }, "geometry": { "type": "Polygon", "coordinates": [ [ [ 80.0, -70.0 ], [ 80.0, -60.0 ], [ 70.0, -60.0 ], [ 70.0, -70.0 ], [ 80.0, -70.0 ] ] ] } },
{ "type": "Feature", "properties": { "row": 2, "col": 26 }, "geometry": { "type": "Polygon", "coordinates": [ [ [ 90.0, -70.0 ], [ 90.0, -60.0 ], [ 80.0, -60.0 ], [ 80.0, -70.0 ], [ 90.0, -70.0 ] ] ] } },
{ "type": "Feature", "properties": { "row": 2, "col": 27 }, "geometry": { "type": "Polygon", "coordinates": [ [ [ 100.0, -70.0 ], [ 100.0, -60.0 ], [ 90.0, -60.0 ], [ 90.0, -70.0 ], [ 100.0, -70.0 ] ] ] } },
{ "type": "Feature", "properties": { "row": 2, "col": 28 }, "geometry": { "type": "Polygon", "coordinates": [ [ [ 110.0, -70.0 ], [ 110.0, -60.0 ], [ 100.0, -60.0 ], [ 100.0, -70.0 ], [ 110.0, -70.0 ] ] ] } },
{ "type": "Feature", "properties": { "row": 2, "col": 29 }, "geometry": { "type": "Polygon", "coordinates": [ [ [ 120.0, -70.0 ], [ 120.0, -60.0 ], [ 110.0, -60.0 ], [ 110.0, -70.0 ], [ 120.0, -70.0 ] ] ] } },
{ "type": "Feature", "properties": { "row": 2, "col": 30 }, "geometry": { "type": "Polygon", "coordinates": [ [ [ 130.0, -70.0 ], [ 130.0, -60.0 ], [ 120.0, -60.0 ], [ 120.0, -70.0 ], [ 130.0, -70.0 ] ] ] } },
{ "type": "Feature", "properties": { "row": 2, "col": 31 }, "geometry": { "type": "Polygon", "coordinates": [ [ [ 140.0, -70.0 ], [ 140.0, -60.0 ], [ 130.0, -60.0 ], [ 130.0, -70.0 ], [ 140.0, -70.0 ] ] ] } },
{ "type": "Feature", "properties": { "row": 2, "col": 32 }, "geometry": { "type": "Polygon", "coordinates": [ [ [ 150.0, -70.0 ], [ 150.0, -60.0 ], [ 140.0, -60.0 ], [ 140.0, -70.0 ], [ 150.0, -70.0 ] ] ] } },
{ "type": "Feature", "properties": { "row": 2, "col": 33 }, "geometry": { "type": "Polygon", "coordinates": [ [ [ 160.0, -70.0 ], [ 160.0, -60.0 ], [ 150.0, -60.0 ], [ 150.0, -70.0 ], [ 160.0, -70.0 ] ] ] } },
{ "type": "Feature", "properties": { "row": 3, "col": 10 }, "geometry": { "type": "Polygon", "coordinates": [ [ [ -70.0, -60.0 ], [ -70.0, -50.0 ], [ -80.0, -50.0 ], [ -80.0, -60.0 ], [ -70.0, -60.0 ] ] ] } },
{ "type": "Feature", "properties": { "row": 3, "col": 11 }, "geometry": { "type": "Polygon", "coordinates": [ [ [ -60.0, -60.0 ], [ -60.0, -50.0 ], [ -70.0, -50.0 ], [ -70.0, -60.0 ], [ -60.0, -60.0 ] ] ] } },
{ "type": "Feature", "properties": { "row": 3, "col": 12 }, "geometry": { "type": "Polygon", "coordinates": [ [ [ -50.0, -60.0 ], [ -50.0, -50.0 ], [ -60.0, -50.0 ], [ -60.0, -60.0 ], [ -50.0, -60.0 ] ] ] } },
{ "type": "Feature", "properties": { "row": 4, "col": 10 }, "geometry": { "type": "Polygon", "coordinates": [ [ [ -70.0, -50.0 ], [ -70.0, -40.0 ], [ -80.0, -40.0 ], [ -80.0, -50.0 ], [ -70.0, -50.0 ] ] ] } },
{ "type": "Feature", "properties": { "row": 4, "col": 11 }, "geometry": { "type": "Polygon", "coordinates": [ [ [ -60.0, -50.0 ], [ -60.0, -40.0 ], [ -70.0, -40.0 ], [ -70.0, -50.0 ], [ -60.0, -50.0 ] ] ] } },
{ "type": "Feature", "properties": { "row": 4, "col": 24 }, "geometry": { "type": "Polygon", "coordinates": [ [ [ 70.0, -50.0 ], [ 70.0, -40.0 ], [ 60.0, -40.0 ], [ 60.0, -50.0 ], [ 70.0, -50.0 ] ] ] } },
{ "type": "Feature", "properties": { "row": 4, "col": 25 }, "geometry": { "type": "Polygon", "coordinates": [ [ [ 80.0, -50.0 ], [ 80.0, -40.0 ], [ 70.0, -40.0 ], [ 70.0, -50.0 ], [ 80.0, -50.0 ] ] ] } },
{ "type": "Feature", "properties": { "row": 4, "col": 32 }, "geometry": { "type": "Polygon", "coordinates": [ [ [ 150.0, -50.0 ], [ 150.0, -40.0 ], [ 140.0, -40.0 ], [ 140.0, -50.0 ], [ 150.0, -50.0 ] ] ] } },
{ "type": "Feature", "properties": { "row": 4, "col": 34 }, "geometry": { "type": "Polygon", "coordinates": [ [ [ 170.0, -50.0 ], [ 170.0, -40.0 ], [ 160.0, -40.0 ], [ 160.0, -50.0 ], [ 170.0, -50.0 ] ] ] } },
{ "type": "Feature", "properties": { "row": 4, "col": 35 }, "geometry": { "type": "Polygon", "coordinates": [ [ [ 180.0, -50.0 ], [ 180.0, -40.0 ], [ 170.0, -40.0 ], [ 170.0, -50.0 ], [ 180.0, -50.0 ] ] ] } },
{ "type": "Feature", "properties": { "row": 5, "col": 10 }, "geometry": { "type": "Polygon", "coordinates": [ [ [ -70.0, -40.0 ], [ -70.0, -30.0 ], [ -80.0, -30.0 ], [ -80.0, -40.0 ], [ -70.0, -40.0 ] ] ] } },
{ "type": "Feature", "properties": { "row": 5, "col": 11 }, "geometry": { "type": "Polygon", "coordinates": [ [ [ -60.0, -40.0 ], [ -60.0, -30.0 ], [ -70.0, -30.0 ], [ -70.0, -40.0 ], [ -60.0, -40.0 ] ] ] } },
{ "type": "Feature", "properties": { "row": 5, "col": 12 }, "geometry": { "type": "Polygon", "coordinates": [ [ [ -50.0, -40.0 ], [ -50.0, -30.0 ], [ -60.0, -30.0 ], [ -60.0, -40.0 ], [ -50.0, -40.0 ] ] ] } },
{ "type": "Feature", "properties": { "row": 5, "col": 19 }, "geometry": { "type": "Polygon", "coordinates": [ [ [ 20.0, -40.0 ], [ 20.0, -30.0 ], [ 10.0, -30.0 ], [ 10.0, -40.0 ], [ 20.0, -40.0 ] ] ] } },
{ "type": "Feature", "properties": { "row": 5, "col": 20 }, "geometry": { "type": "Polygon", "coordinates": [ [ [ 30.0, -40.0 ], [ 30.0, -30.0 ], [ 20.0, -30.0 ], [ 20.0, -40.0 ], [ 30.0, -40.0 ] ] ] } },
{ "type": "Feature", "properties": { "row": 5, "col": 21 }, "geometry": { "type": "Polygon", "coordinates": [ [ [ 40.0, -40.0 ], [ 40.0, -30.0 ], [ 30.0, -30.0 ], [ 30.0, -40.0 ], [ 40.0, -40.0 ] ] ] } },
{ "type": "Feature", "properties": { "row": 5, "col": 29 }, "geometry": { "type": "Polygon", "coordinates": [ [ [ 120.0, -40.0 ], [ 120.0, -30.0 ], [ 110.0, -30.0 ], [ 110.0, -40.0 ], [ 120.0, -40.0 ] ] ] } },
{ "type": "Feature", "properties": { "row": 5, "col": 30 }, "geometry": { "type": "Polygon", "coordinates": [ [ [ 130.0, -40.0 ], [ 130.0, -30.0 ], [ 120.0, -30.0 ], [ 120.0, -40.0 ], [ 130.0, -40.0 ] ] ] } },
{ "type": "Feature", "properties": { "row": 5, "col": 31 }, "geometry": { "type": "Polygon", "coordinates": [ [ [ 140.0, -40.0 ], [ 140.0, -30.0 ], [ 130.0, -30.0 ], [ 130.0, -40.0 ], [ 140.0, -40.0 ] ] ] } },
{ "type": "Feature", "properties": { "row": 5, "col": 32 }, "geometry": { "type": "Polygon", "coordinates": [ [ [ 150.0, -40.0 ], [ 150.0, -30.0 ], [ 140.0, -30.0 ], [ 140.0, -40.0 ], [ 150.0, -40.0 ] ] ] } },
{ "type": "Feature", "properties": { "row": 5, "col": 33 }, "geometry": { "type": "Polygon", "coordinates": [ [ [ 160.0, -40.0 ], [ 160.0, -30.0 ], [ 150.0, -30.0 ], [ 150.0, -40.0 ], [ 160.0, -40.0 ] ] ] } },
{ "type": "Feature", "properties": { "row": 5, "col": 35 }, "geometry": { "type": "Polygon", "coordinates": [ [ [ 180.0, -40.0 ], [ 180.0, -30.0 ], [ 170.0, -30.0 ], [ 170.0, -40.0 ], [ 180.0, -40.0 ] ] ] } },
{ "type": "Feature", "properties": { "row": 6, "col": 10 }, "geometry": { "type": "Polygon", "coordinates": [ [ [ -70.0, -30.0 ], [ -70.0, -20.0 ], [ -80.0, -20.0 ], [ -80.0, -30.0 ], [ -70.0, -30.0 ] ] ] } },
{ "type": "Feature", "properties": { "row": 6, "col": 11 }, "geometry": { "type": "Polygon", "coordinates": [ [ [ -60.0, -30.0 ], [ -60.0, -20.0 ], [ -70.0, -20.0 ], [ -70.0, -30.0 ], [ -60.0, -30.0 ] ] ] } },
{ "type": "Feature", "properties": { "row": 6, "col": 12 }, "geometry": { "type": "Polygon", "coordinates": [ [ [ -50.0, -30.0 ], [ -50.0, -20.0 ], [ -60.0, -20.0 ], [ -60.0, -30.0 ], [ -50.0, -30.0 ] ] ] } },
{ "type": "Feature", "properties": { "row": 6, "col": 13 }, "geometry": { "type": "Polygon", "coordinates": [ [ [ -40.0, -30.0 ], [ -40.0, -20.0 ], [ -50.0, -20.0 ], [ -50.0, -30.0 ], [ -40.0, -30.0 ] ] ] } },
{ "type": "Feature", "properties": { "row": 6, "col": 19 }, "geometry": { "type": "Polygon", "coordinates": [ [ [ 20.0, -30.0 ], [ 20.0, -20.0 ], [ 10.0, -20.0 ], [ 10.0, -30.0 ], [ 20.0, -30.0 ] ] ] } },
{ "type": "Feature", "properties": { "row": 6, "col": 20 }, "geometry": { "type": "Polygon", "coordinates": [ [ [ 30.0, -30.0 ], [ 30.0, -20.0 ], [ 20.0, -20.0 ], [ 20.0, -30.0 ], [ 30.0, -30.0 ] ] ] } },
{ "type": "Feature", "properties": { "row": 6, "col": 21 }, "geometry": { "type": "Polygon", "coordinates": [ [ [ 40.0, -30.0 ], [ 40.0, -20.0 ], [ 30.0, -20.0 ], [ 30.0, -30.0 ], [ 40.0, -30.0 ] ] ] } },
{ "type": "Feature", "properties": { "row": 6, "col": 22 }, "geometry": { "type": "Polygon", "coordinates": [ [ [ 50.0, -30.0 ], [ 50.0, -20.0 ], [ 40.0, -20.0 ], [ 40.0, -30.0 ], [ 50.0, -30.0 ] ] ] } },
{ "type": "Feature", "properties": { "row": 6, "col": 29 }, "geometry": { "type": "Polygon", "coordinates": [ [ [ 120.0, -30.0 ], [ 120.0, -20.0 ], [ 110.0, -20.0 ], [ 110.0, -30.0 ], [ 120.0, -30.0 ] ] ] } },
{ "type": "Feature", "properties": { "row": 6, "col": 30 }, "geometry": { "type": "Polygon", "coordinates": [ [ [ 130.0, -30.0 ], [ 130.0, -20.0 ], [ 120.0, -20.0 ], [ 120.0, -30.0 ], [ 130.0, -30.0 ] ] ] } },
{ "type": "Feature", "properties": { "row": 6, "col": 31 }, "geometry": { "type": "Polygon", "coordinates": [ [ [ 140.0, -30.0 ], [ 140.0, -20.0 ], [ 130.0, -20.0 ], [ 130.0, -30.0 ], [ 140.0, -30.0 ] ] ] } },
{ "type": "Feature", "properties": { "row": 6, "col": 32 }, "geometry": { "type": "Polygon", "coordinates": [ [ [ 150.0, -30.0 ], [ 150.0, -20.0 ], [ 140.0, -20.0 ], [ 140.0, -30.0 ], [ 150.0, -30.0 ] ] ] } },
{ "type": "Feature", "properties": { "row": 6, "col": 33 }, "geometry": { "type": "Polygon", "coordinates": [ [ [ 160.0, -30.0 ], [ 160.0, -20.0 ], [ 150.0, -20.0 ], [ 150.0, -30.0 ], [ 160.0, -30.0 ] ] ] } },
{ "type": "Feature", "properties": { "row": 6, "col": 34 }, "geometry": { "type": "Polygon", "coordinates": [ [ [ 170.0, -30.0 ], [ 170.0, -20.0 ], [ 160.0, -20.0 ], [ 160.0, -30.0 ], [ 170.0, -30.0 ] ] ] } },
{ "type": "Feature", "properties": { "row": 7, "col": 0 }, "geometry": { "type": "Polygon", "coordinates": [ [ [ -170.0, -20.0 ], [ -170.0, -10.0 ], [ -180.0, -10.0 ], [ -180.0, -20.0 ], [ -170.0, -20.0 ] ] ] } },
{ "type": "Feature", "properties": { "row": 7, "col": 10 }, "geometry": { "type": "Polygon", "coordinates": [ [ [ -70.0, -20.0 ], [ -70.0, -10.0 ], [ -80.0, -10.0 ], [ -80.0, -20.0 ], [ -70.0, -20.0 ] ] ] } },
{ "type": "Feature", "properties": { "row": 7, "col": 11 }, "geometry": { "type": "Polygon", "coordinates": [ [ [ -60.0, -20.0 ], [ -60.0, -10.0 ], [ -70.0, -10.0 ], [ -70.0, -20.0 ], [ -60.0, -20.0 ] ] ] } },
{ "type": "Feature", "properties": { "row": 7, "col": 12 }, "geometry": { "type": "Polygon", "coordinates": [ [ [ -50.0, -20.0 ], [ -50.0, -10.0 ], [ -60.0, -10.0 ], [ -60.0, -20.0 ], [ -50.0, -20.0 ] ] ] } },
{ "type": "Feature", "properties": { "row": 7, "col": 13 }, "geometry": { "type": "Polygon", "coordinates": [ [ [ -40.0, -20.0 ], [ -40.0, -10.0 ], [ -50.0, -10.0 ], [ -50.0, -20.0 ], [ -40.0, -20.0 ] ] ] } },
{ "type": "Feature", "properties": { "row": 7, "col": 14 }, "geometry": { "type": "Polygon", "coordinates": [ [ [ -30.0, -20.0 ], [ -30.0, -10.0 ], [ -40.0, -10.0 ], [ -40.0, -20.0 ], [ -30.0, -20.0 ] ] ] } },
{ "type": "Feature", "properties": { "row": 7, "col": 19 }, "geometry": { "type": "Polygon", "coordinates": [ [ [ 20.0, -20.0 ], [ 20.0, -10.0 ], [ 10.0, -10.0 ], [ 10.0, -20.0 ], [ 20.0, -20.0 ] ] ] } },
{ "type": "Feature", "properties": { "row": 7, "col": 20 }, "geometry": { "type": "Polygon", "coordinates": [ [ [ 30.0, -20.0 ], [ 30.0, -10.0 ], [ 20.0, -10.0 ], [ 20.0, -20.0 ], [ 30.0, -20.0 ] ] ] } },
{ "type": "Feature", "properties": { "row": 7, "col": 21 }, "geometry": { "type": "Polygon", "coordinates": [ [ [ 40.0, -20.0 ], [ 40.0, -10.0 ], [ 30.0, -10.0 ], [ 30.0, -20.0 ], [ 40.0, -20.0 ] ] ] } },
{ "type": "Feature", "properties": { "row": 7, "col": 22 }, "geometry": { "type": "Polygon", "coordinates": [ [ [ 50.0, -20.0 ], [ 50.0, -10.0 ], [ 40.0, -10.0 ], [ 40.0, -20.0 ], [ 50.0, -20.0 ] ] ] } },
{ "type": "Feature", "properties": { "row": 7, "col": 23 }, "geometry": { "type": "Polygon", "coordinates": [ [ [ 60.0, -20.0 ], [ 60.0, -10.0 ], [ 50.0, -10.0 ], [ 50.0, -20.0 ], [ 60.0, -20.0 ] ] ] } },
{ "type": "Feature", "properties": { "row": 7, "col": 29 }, "geometry": { "type": "Polygon", "coordinates": [ [ [ 120.0, -20.0 ], [ 120.0, -10.0 ], [ 110.0, -10.0 ], [ 110.0, -20.0 ], [ 120.0, -20.0 ] ] ] } },
{ "type": "Feature", "properties": { "row": 7, "col": 30 }, "geometry": { "type": "Polygon", "coordinates": [ [ [ 130.0, -20.0 ], [ 130.0, -10.0 ], [ 120.0, -10.0 ], [ 120.0, -20.0 ], [ 130.0, -20.0 ] ] ] } },
{ "type": "Feature", "properties": { "row": 7, "col": 31 }, "geometry": { "type": "Polygon", "coordinates": [ [ [ 140.0, -20.0 ], [ 140.0, -10.0 ], [ 130.0, -10.0 ], [ 130.0, -20.0 ], [ 140.0, -20.0 ] ] ] } },
{ "type": "Feature", "properties": { "row": 7, "col": 32 }, "geometry": { "type": "Polygon", "coordinates": [ [ [ 150.0, -20.0 ], [ 150.0, -10.0 ], [ 140.0, -10.0 ], [ 140.0, -20.0 ], [ 150.0, -20.0 ] ] ] } },
{ "type": "Feature", "properties": { "row": 7, "col": 33 }, "geometry": { "type": "Polygon", "coordinates": [ [ [ 160.0, -20.0 ], [ 160.0, -10.0 ], [ 150.0, -10.0 ], [ 150.0, -20.0 ], [ 160.0, -20.0 ] ] ] } },
{ "type": "Feature", "properties": { "row": 7, "col": 34 }, "geometry": { "type": "Polygon", "coordinates": [ [ [ 170.0, -20.0 ], [ 170.0, -10.0 ], [ 160.0, -10.0 ], [ 160.0, -20.0 ], [ 170.0, -20.0 ] ] ] } },
{ "type": "Feature", "properties": { "row": 7, "col": 35 }, "geometry": { "type": "Polygon", "coordinates": [ [ [ 180.0, -20.0 ], [ 180.0, -10.0 ], [ 170.0, -10.0 ], [ 170.0, -20.0 ], [ 180.0, -20.0 ] ] ] } },
{ "type": "Feature", "properties": { "row": 8, "col": 9 }, "geometry": { "type": "Polygon", "coordinates": [ [ [ -80.0, -10.0 ], [ -80.0, 0.0 ], [ -90.0, 0.0 ], [ -90.0, -10.0 ], [ -80.0, -10.0 ] ] ] } },
{ "type": "Feature", "properties": { "row": 8, "col": 10 }, "geometry": { "type": "Polygon", "coordinates": [ [ [ -70.0, -10.0 ], [ -70.0, 0.0 ], [ -80.0, 0.0 ], [ -80.0, -10.0 ], [ -70.0, -10.0 ] ] ] } },
{ "type": "Feature", "properties": { "row": 8, "col": 11 }, "geometry": { "type": "Polygon", "coordinates": [ [ [ -60.0, -10.0 ], [ -60.0, 0.0 ], [ -70.0, 0.0 ], [ -70.0, -10.0 ], [ -60.0, -10.0 ] ] ] } },
{ "type": "Feature", "properties": { "row": 8, "col": 12 }, "geometry": { "type": "Polygon", "coordinates": [ [ [ -50.0, -10.0 ], [ -50.0, 0.0 ], [ -60.0, 0.0 ], [ -60.0, -10.0 ], [ -50.0, -10.0 ] ] ] } },
{ "type": "Feature", "properties": { "row": 8, "col": 13 }, "geometry": { "type": "Polygon", "coordinates": [ [ [ -40.0, -10.0 ], [ -40.0, 0.0 ], [ -50.0, 0.0 ], [ -50.0, -10.0 ], [ -40.0, -10.0 ] ] ] } },
{ "type": "Feature", "properties": { "row": 8, "col": 14 }, "geometry": { "type": "Polygon", "coordinates": [ [ [ -30.0, -10.0 ], [ -30.0, 0.0 ], [ -40.0, 0.0 ], [ -40.0, -10.0 ], [ -30.0, -10.0 ] ] ] } },
{ "type": "Feature", "properties": { "row": 8, "col": 18 }, "geometry": { "type": "Polygon", "coordinates": [ [ [ 10.0, -10.0 ], [ 10.0, 0.0 ], [ 0.0, 0.0 ], [ 0.0, -10.0 ], [ 10.0, -10.0 ] ] ] } },
{ "type": "Feature", "properties": { "row": 8, "col": 19 }, "geometry": { "type": "Polygon", "coordinates": [ [ [ 20.0, -10.0 ], [ 20.0, 0.0 ], [ 10.0, 0.0 ], [ 10.0, -10.0 ], [ 20.0, -10.0 ] ] ] } },
{ "type": "Feature", "properties": { "row": 8, "col": 20 }, "geometry": { "type": "Polygon", "coordinates": [ [ [ 30.0, -10.0 ], [ 30.0, 0.0 ], [ 20.0, 0.0 ], [ 20.0, -10.0 ], [ 30.0, -10.0 ] ] ] } },
{ "type": "Feature", "properties": { "row": 8, "col": 21 }, "geometry": { "type": "Polygon", "coordinates": [ [ [ 40.0, -10.0 ], [ 40.0, 0.0 ], [ 30.0, 0.0 ], [ 30.0, -10.0 ], [ 40.0, -10.0 ] ] ] } },
{ "type": "Feature", "properties": { "row": 8, "col": 22 }, "geometry": { "type": "Polygon", "coordinates": [ [ [ 50.0, -10.0 ], [ 50.0, 0.0 ], [ 40.0, 0.0 ], [ 40.0, -10.0 ], [ 50.0, -10.0 ] ] ] } },
{ "type": "Feature", "properties": { "row": 8, "col": 27 }, "geometry": { "type": "Polygon", "coordinates": [ [ [ 100.0, -10.0 ], [ 100.0, 0.0 ], [ 90.0, 0.0 ], [ 90.0, -10.0 ], [ 100.0, -10.0 ] ] ] } },
{ "type": "Feature", "properties": { "row": 8, "col": 28 }, "geometry": { "type": "Polygon", "coordinates": [ [ [ 110.0, -10.0 ], [ 110.0, 0.0 ], [ 100.0, 0.0 ], [ 100.0, -10.0 ], [ 110.0, -10.0 ] ] ] } },
{ "type": "Feature", "properties": { "row": 8, "col": 29 }, "geometry": { "type": "Polygon", "coordinates": [ [ [ 120.0, -10.0 ], [ 120.0, 0.0 ], [ 110.0, 0.0 ], [ 110.0, -10.0 ], [ 120.0, -10.0 ] ] ] } },
{ "type": "Feature", "properties": { "row": 8, "col": 30 }, "geometry": { "type": "Polygon", "coordinates": [ [ [ 130.0, -10.0 ], [ 130.0, 0.0 ], [ 120.0, 0.0 ], [ 120.0, -10.0 ], [ 130.0, -10.0 ] ] ] } },
{ "type": "Feature", "properties": { "row": 8, "col": 31 }, "geometry": { "type": "Polygon", "coordinates": [ [ [ 140.0, -10.0 ], [ 140.0, 0.0 ], [ 130.0, 0.0 ], [ 130.0, -10.0 ], [ 140.0, -10.0 ] ] ] } },
{ "type": "Feature", "properties": { "row": 8, "col": 32 }, "geometry": { "type": "Polygon", "coordinates": [ [ [ 150.0, -10.0 ], [ 150.0, 0.0 ], [ 140.0, 0.0 ], [ 140.0, -10.0 ], [ 150.0, -10.0 ] ] ] } },
{ "type": "Feature", "properties": { "row": 8, "col": 33 }, "geometry": { "type": "Polygon", "coordinates": [ [ [ 160.0, -10.0 ], [ 160.0, 0.0 ], [ 150.0, 0.0 ], [ 150.0, -10.0 ], [ 160.0, -10.0 ] ] ] } },
{ "type": "Feature", "properties": { "row": 8, "col": 34 }, "geometry": { "type": "Polygon", "coordinates": [ [ [ 170.0, -10.0 ], [ 170.0, 0.0 ], [ 160.0, 0.0 ], [ 160.0, -10.0 ], [ 170.0, -10.0 ] ] ] } },
{ "type": "Feature", "properties": { "row": 9, "col": 9 }, "geometry": { "type": "Polygon", "coordinates": [ [ [ -80.0, 0.0 ], [ -80.0, 10.0 ], [ -90.0, 10.0 ], [ -90.0, 0.0 ], [ -80.0, 0.0 ] ] ] } },
{ "type": "Feature", "properties": { "row": 9, "col": 10 }, "geometry": { "type": "Polygon", "coordinates": [ [ [ -70.0, 0.0 ], [ -70.0, 10.0 ], [ -80.0, 10.0 ], [ -80.0, 0.0 ], [ -70.0, 0.0 ] ] ] } },
{ "type": "Feature", "properties": { "row": 9, "col": 11 }, "geometry": { "type": "Polygon", "coordinates": [ [ [ -60.0, 0.0 ], [ -60.0, 10.0 ], [ -70.0, 10.0 ], [ -70.0, 0.0 ], [ -60.0, 0.0 ] ] ] } },
{ "type": "Feature", "properties": { "row": 9, "col": 12 }, "geometry": { "type": "Polygon", "coordinates": [ [ [ -50.0, 0.0 ], [ -50.0, 10.0 ], [ -60.0, 10.0 ], [ -60.0, 0.0 ], [ -50.0, 0.0 ] ] ] } },
{ "type": "Feature", "properties": { "row": 9, "col": 13 }, "geometry": { "type": "Polygon", "coordinates": [ [ [ -40.0, 0.0 ], [ -40.0, 10.0 ], [ -50.0, 10.0 ], [ -50.0, 0.0 ], [ -40.0, 0.0 ] ] ] } },
{ "type": "Feature", "properties": { "row": 9, "col": 16 }, "geometry": { "type": "Polygon", "coordinates": [ [ [ -10.0, 0.0 ], [ -10.0, 10.0 ], [ -20.0, 10.0 ], [ -20.0, 0.0 ], [ -10.0, 0.0 ] ] ] } },
{ "type": "Feature", "properties": { "row": 9, "col": 17 }, "geometry": { "type": "Polygon", "coordinates": [ [ [ 0.0, 0.0 ], [ 0.0, 10.0 ], [ -10.0, 10.0 ], [ -10.0, 0.0 ], [ 0.0, 0.0 ] ] ] } },
{ "type": "Feature", "properties": { "row": 9, "col": 18 }, "geometry": { "type": "Polygon", "coordinates": [ [ [ 10.0, 0.0 ], [ 10.0, 10.0 ], [ 0.0, 10.0 ], [ 0.0, 0.0 ], [ 10.0, 0.0 ] ] ] } },
{ "type": "Feature", "properties": { "row": 9, "col": 19 }, "geometry": { "type": "Polygon", "coordinates": [ [ [ 20.0, 0.0 ], [ 20.0, 10.0 ], [ 10.0, 10.0 ], [ 10.0, 0.0 ], [ 20.0, 0.0 ] ] ] } },
{ "type": "Feature", "properties": { "row": 9, "col": 20 }, "geometry": { "type": "Polygon", "coordinates": [ [ [ 30.0, 0.0 ], [ 30.0, 10.0 ], [ 20.0, 10.0 ], [ 20.0, 0.0 ], [ 30.0, 0.0 ] ] ] } },
{ "type": "Feature", "properties": { "row": 9, "col": 21 }, "geometry": { "type": "Polygon", "coordinates": [ [ [ 40.0, 0.0 ], [ 40.0, 10.0 ], [ 30.0, 10.0 ], [ 30.0, 0.0 ], [ 40.0, 0.0 ] ] ] } },
{ "type": "Feature", "properties": { "row": 9, "col": 22 }, "geometry": { "type": "Polygon", "coordinates": [ [ [ 50.0, 0.0 ], [ 50.0, 10.0 ], [ 40.0, 10.0 ], [ 40.0, 0.0 ], [ 50.0, 0.0 ] ] ] } },
{ "type": "Feature", "properties": { "row": 9, "col": 23 }, "geometry": { "type": "Polygon", "coordinates": [ [ [ 60.0, 0.0 ], [ 60.0, 10.0 ], [ 50.0, 10.0 ], [ 50.0, 0.0 ], [ 60.0, 0.0 ] ] ] } },
{ "type": "Feature", "properties": { "row": 9, "col": 25 }, "geometry": { "type": "Polygon", "coordinates": [ [ [ 80.0, 0.0 ], [ 80.0, 10.0 ], [ 70.0, 10.0 ], [ 70.0, 0.0 ], [ 80.0, 0.0 ] ] ] } },
{ "type": "Feature", "properties": { "row": 9, "col": 26 }, "geometry": { "type": "Polygon", "coordinates": [ [ [ 90.0, 0.0 ], [ 90.0, 10.0 ], [ 80.0, 10.0 ], [ 80.0, 0.0 ], [ 90.0, 0.0 ] ] ] } },
{ "type": "Feature", "properties": { "row": 9, "col": 27 }, "geometry": { "type": "Polygon", "coordinates": [ [ [ 100.0, 0.0 ], [ 100.0, 10.0 ], [ 90.0, 10.0 ], [ 90.0, 0.0 ], [ 100.0, 0.0 ] ] ] } },
{ "type": "Feature", "properties": { "row": 9, "col": 28 }, "geometry": { "type": "Polygon", "coordinates": [ [ [ 110.0, 0.0 ], [ 110.0, 10.0 ], [ 100.0, 10.0 ], [ 100.0, 0.0 ], [ 110.0, 0.0 ] ] ] } },
{ "type": "Feature", "properties": { "row": 9, "col": 29 }, "geometry": { "type": "Polygon", "coordinates": [ [ [ 120.0, 0.0 ], [ 120.0, 10.0 ], [ 110.0, 10.0 ], [ 110.0, 0.0 ], [ 120.0, 0.0 ] ] ] } },
{ "type": "Feature", "properties": { "row": 9, "col": 30 }, "geometry": { "type": "Polygon", "coordinates": [ [ [ 130.0, 0.0 ], [ 130.0, 10.0 ], [ 120.0, 10.0 ], [ 120.0, 0.0 ], [ 130.0, 0.0 ] ] ] } },
{ "type": "Feature", "properties": { "row": 10, "col": 2 }, "geometry": { "type": "Polygon", "coordinates": [ [ [ -150.0, 10.0 ], [ -150.0, 20.0 ], [ -160.0, 20.0 ], [ -160.0, 10.0 ], [ -150.0, 10.0 ] ] ] } },
{ "type": "Feature", "properties": { "row": 10, "col": 7 }, "geometry": { "type": "Polygon", "coordinates": [ [ [ -100.0, 10.0 ], [ -100.0, 20.0 ], [ -110.0, 20.0 ], [ -110.0, 10.0 ], [ -100.0, 10.0 ] ] ] } },
{ "type": "Feature", "properties": { "row": 10, "col": 8 }, "geometry": { "type": "Polygon", "coordinates": [ [ [ -90.0, 10.0 ], [ -90.0, 20.0 ], [ -100.0, 20.0 ], [ -100.0, 10.0 ], [ -90.0, 10.0 ] ] ] } },
{ "type": "Feature", "properties": { "row": 10, "col": 9 }, "geometry": { "type": "Polygon", "coordinates": [ [ [ -80.0, 10.0 ], [ -80.0, 20.0 ], [ -90.0, 20.0 ], [ -90.0, 10.0 ], [ -80.0, 10.0 ] ] ] } },
{ "type": "Feature", "properties": { "row": 10, "col": 10 }, "geometry": { "type": "Polygon", "coordinates": [ [ [ -70.0, 10.0 ], [ -70.0, 20.0 ], [ -80.0, 20.0 ], [ -80.0, 10.0 ], [ -70.0, 10.0 ] ] ] } },
{ "type": "Feature", "properties": { "row": 10, "col": 11 }, "geometry": { "type": "Polygon", "coordinates": [ [ [ -60.0, 10.0 ], [ -60.0, 20.0 ], [ -70.0, 20.0 ], [ -70.0, 10.0 ], [ -60.0, 10.0 ] ] ] } },
{ "type": "Feature", "properties": { "row": 10, "col": 16 }, "geometry": { "type": "Polygon", "coordinates": [ [ [ -10.0, 10.0 ], [ -10.0, 20.0 ], [ -20.0, 20.0 ], [ -20.0, 10.0 ], [ -10.0, 10.0 ] ] ] } },
{ "type": "Feature", "properties": { "row": 10, "col": 17 }, "geometry": { "type": "Polygon", "coordinates": [ [ [ 0.0, 10.0 ], [ 0.0, 20.0 ], [ -10.0, 20.0 ], [ -10.0, 10.0 ], [ 0.0, 10.0 ] ] ] } },
{ "type": "Feature", "properties": { "row": 10, "col": 18 }, "geometry": { "type": "Polygon", "coordinates": [ [ [ 10.0, 10.0 ], [ 10.0, 20.0 ], [ 0.0, 20.0 ], [ 0.0, 10.0 ], [ 10.0, 10.0 ] ] ] } },
{ "type": "Feature", "properties": { "row": 10, "col": 19 }, "geometry": { "type": "Polygon", "coordinates": [ [ [ 20.0, 10.0 ], [ 20.0, 20.0 ], [ 10.0, 20.0 ], [ 10.0, 10.0 ], [ 20.0, 10.0 ] ] ] } },
{ "type": "Feature", "properties": { "row": 10, "col": 20 }, "geometry": { "type": "Polygon", "coordinates": [ [ [ 30.0, 10.0 ], [ 30.0, 20.0 ], [ 20.0, 20.0 ], [ 20.0, 10.0 ], [ 30.0, 10.0 ] ] ] } },
{ "type": "Feature", "properties": { "row": 10, "col": 21 }, "geometry": { "type": "Polygon", "coordinates": [ [ [ 40.0, 10.0 ], [ 40.0, 20.0 ], [ 30.0, 20.0 ], [ 30.0, 10.0 ], [ 40.0, 10.0 ] ] ] } },
{ "type": "Feature", "properties": { "row": 10, "col": 22 }, "geometry": { "type": "Polygon", "coordinates": [ [ [ 50.0, 10.0 ], [ 50.0, 20.0 ], [ 40.0, 20.0 ], [ 40.0, 10.0 ], [ 50.0, 10.0 ] ] ] } },
{ "type": "Feature", "properties": { "row": 10, "col": 23 }, "geometry": { "type": "Polygon", "coordinates": [ [ [ 60.0, 10.0 ], [ 60.0, 20.0 ], [ 50.0, 20.0 ], [ 50.0, 10.0 ], [ 60.0, 10.0 ] ] ] } },
{ "type": "Feature", "properties": { "row": 10, "col": 25 }, "geometry": { "type": "Polygon", "coordinates": [ [ [ 80.0, 10.0 ], [ 80.0, 20.0 ], [ 70.0, 20.0 ], [ 70.0, 10.0 ], [ 80.0, 10.0 ] ] ] } },
{ "type": "Feature", "properties": { "row": 10, "col": 26 }, "geometry": { "type": "Polygon", "coordinates": [ [ [ 90.0, 10.0 ], [ 90.0, 20.0 ], [ 80.0, 20.0 ], [ 80.0, 10.0 ], [ 90.0, 10.0 ] ] ] } },
{ "type": "Feature", "properties": { "row": 10, "col": 27 }, "geometry": { "type": "Polygon", "coordinates": [ [ [ 100.0, 10.0 ], [ 100.0, 20.0 ], [ 90.0, 20.0 ], [ 90.0, 10.0 ], [ 100.0, 10.0 ] ] ] } },
{ "type": "Feature", "properties": { "row": 10, "col": 28 }, "geometry": { "type": "Polygon", "coordinates": [ [ [ 110.0, 10.0 ], [ 110.0, 20.0 ], [ 100.0, 20.0 ], [ 100.0, 10.0 ], [ 110.0, 10.0 ] ] ] } },
{ "type": "Feature", "properties": { "row": 10, "col": 29 }, "geometry": { "type": "Polygon", "coordinates": [ [ [ 120.0, 10.0 ], [ 120.0, 20.0 ], [ 110.0, 20.0 ], [ 110.0, 10.0 ], [ 120.0, 10.0 ] ] ] } },
{ "type": "Feature", "properties": { "row": 10, "col": 30 }, "geometry": { "type": "Polygon", "coordinates": [ [ [ 130.0, 10.0 ], [ 130.0, 20.0 ], [ 120.0, 20.0 ], [ 120.0, 10.0 ], [ 130.0, 10.0 ] ] ] } },
{ "type": "Feature", "properties": { "row": 11, "col": 2 }, "geometry": { "type": "Polygon", "coordinates": [ [ [ -150.0, 20.0 ], [ -150.0, 30.0 ], [ -160.0, 30.0 ], [ -160.0, 20.0 ], [ -150.0, 20.0 ] ] ] } },
{ "type": "Feature", "properties": { "row": 11, "col": 6 }, "geometry": { "type": "Polygon", "coordinates": [ [ [ -110.0, 20.0 ], [ -110.0, 30.0 ], [ -120.0, 30.0 ], [ -120.0, 20.0 ], [ -110.0, 20.0 ] ] ] } },
{ "type": "Feature", "properties": { "row": 11, "col": 7 }, "geometry": { "type": "Polygon", "coordinates": [ [ [ -100.0, 20.0 ], [ -100.0, 30.0 ], [ -110.0, 30.0 ], [ -110.0, 20.0 ], [ -100.0, 20.0 ] ] ] } },
{ "type": "Feature", "properties": { "row": 11, "col": 8 }, "geometry": { "type": "Polygon", "coordinates": [ [ [ -90.0, 20.0 ], [ -90.0, 30.0 ], [ -100.0, 30.0 ], [ -100.0, 20.0 ], [ -90.0, 20.0 ] ] ] } },
{ "type": "Feature", "properties": { "row": 11, "col": 9 }, "geometry": { "type": "Polygon", "coordinates": [ [ [ -80.0, 20.0 ], [ -80.0, 30.0 ], [ -90.0, 30.0 ], [ -90.0, 20.0 ], [ -80.0, 20.0 ] ] ] } },
{ "type": "Feature", "properties": { "row": 11, "col": 10 }, "geometry": { "type": "Polygon", "coordinates": [ [ [ -70.0, 20.0 ], [ -70.0, 30.0 ], [ -80.0, 30.0 ], [ -80.0, 20.0 ], [ -70.0, 20.0 ] ] ] } },
{ "type": "Feature", "properties": { "row": 11, "col": 16 }, "geometry": { "type": "Polygon", "coordinates": [ [ [ -10.0, 20.0 ], [ -10.0, 30.0 ], [ -20.0, 30.0 ], [ -20.0, 20.0 ], [ -10.0, 20.0 ] ] ] } },
{ "type": "Feature", "properties": { "row": 11, "col": 17 }, "geometry": { "type": "Polygon", "coordinates": [ [ [ 0.0, 20.0 ], [ 0.0, 30.0 ], [ -10.0, 30.0 ], [ -10.0, 20.0 ], [ 0.0, 20.0 ] ] ] } },
{ "type": "Feature", "properties": { "row": 11, "col": 18 }, "geometry": { "type": "Polygon", "coordinates": [ [ [ 10.0, 20.0 ], [ 10.0, 30.0 ], [ 0.0, 30.0 ], [ 0.0, 20.0 ], [ 10.0, 20.0 ] ] ] } },
{ "type": "Feature", "properties": { "row": 11, "col": 19 }, "geometry": { "type": "Polygon", "coordinates": [ [ [ 20.0, 20.0 ], [ 20.0, 30.0 ], [ 10.0, 30.0 ], [ 10.0, 20.0 ], [ 20.0, 20.0 ] ] ] } },
{ "type": "Feature", "properties": { "row": 11, "col": 20 }, "geometry": { "type": "Polygon", "coordinates": [ [ [ 30.0, 20.0 ], [ 30.0, 30.0 ], [ 20.0, 30.0 ], [ 20.0, 20.0 ], [ 30.0, 20.0 ] ] ] } },
{ "type": "Feature", "properties": { "row": 11, "col": 21 }, "geometry": { "type": "Polygon", "coordinates": [ [ [ 40.0, 20.0 ], [ 40.0, 30.0 ], [ 30.0, 30.0 ], [ 30.0, 20.0 ], [ 40.0, 20.0 ] ] ] } },
{ "type": "Feature", "properties": { "row": 11, "col": 22 }, "geometry": { "type": "Polygon", "coordinates": [ [ [ 50.0, 20.0 ], [ 50.0, 30.0 ], [ 40.0, 30.0 ], [ 40.0, 20.0 ], [ 50.0, 20.0 ] ] ] } },
{ "type": "Feature", "properties": { "row": 11, "col": 23 }, "geometry": { "type": "Polygon", "coordinates": [ [ [ 60.0, 20.0 ], [ 60.0, 30.0 ], [ 50.0, 30.0 ], [ 50.0, 20.0 ], [ 60.0, 20.0 ] ] ] } },
{ "type": "Feature", "properties": { "row": 11, "col": 24 }, "geometry": { "type": "Polygon", "coordinates": [ [ [ 70.0, 20.0 ], [ 70.0, 30.0 ], [ 60.0, 30.0 ], [ 60.0, 20.0 ], [ 70.0, 20.0 ] ] ] } },
{ "type": "Feature", "properties": { "row": 11, "col": 25 }, "geometry": { "type": "Polygon", "coordinates": [ [ [ 80.0, 20.0 ], [ 80.0, 30.0 ], [ 70.0, 30.0 ], [ 70.0, 20.0 ], [ 80.0, 20.0 ] ] ] } },
{ "type": "Feature", "properties": { "row": 11, "col": 26 }, "geometry": { "type": "Polygon", "coordinates": [ [ [ 90.0, 20.0 ], [ 90.0, 30.0 ], [ 80.0, 30.0 ], [ 80.0, 20.0 ], [ 90.0, 20.0 ] ] ] } },
{ "type": "Feature", "properties": { "row": 11, "col": 27 }, "geometry": { "type": "Polygon", "coordinates": [ [ [ 100.0, 20.0 ], [ 100.0, 30.0 ], [ 90.0, 30.0 ], [ 90.0, 20.0 ], [ 100.0, 20.0 ] ] ] } },
{ "type": "Feature", "properties": { "row": 11, "col": 28 }, "geometry": { "type": "Polygon", "coordinates": [ [ [ 110.0, 20.0 ], [ 110.0, 30.0 ], [ 100.0, 30.0 ], [ 100.0, 20.0 ], [ 110.0, 20.0 ] ] ] } },
{ "type": "Feature", "properties": { "row": 11, "col": 29 }, "geometry": { "type": "Polygon", "coordinates": [ [ [ 120.0, 20.0 ], [ 120.0, 30.0 ], [ 110.0, 30.0 ], [ 110.0, 20.0 ], [ 120.0, 20.0 ] ] ] } },
{ "type": "Feature", "properties": { "row": 11, "col": 30 }, "geometry": { "type": "Polygon", "coordinates": [ [ [ 130.0, 20.0 ], [ 130.0, 30.0 ], [ 120.0, 30.0 ], [ 120.0, 20.0 ], [ 130.0, 20.0 ] ] ] } },
{ "type": "Feature", "properties": { "row": 12, "col": 5 }, "geometry": { "type": "Polygon", "coordinates": [ [ [ -120.0, 30.0 ], [ -120.0, 40.0 ], [ -130.0, 40.0 ], [ -130.0, 30.0 ], [ -120.0, 30.0 ] ] ] } },
{ "type": "Feature", "properties": { "row": 12, "col": 6 }, "geometry": { "type": "Polygon", "coordinates": [ [ [ -110.0, 30.0 ], [ -110.0, 40.0 ], [ -120.0, 40.0 ], [ -120.0, 30.0 ], [ -110.0, 30.0 ] ] ] } },
{ "type": "Feature", "properties": { "row": 12, "col": 7 }, "geometry": { "type": "Polygon", "coordinates": [ [ [ -100.0, 30.0 ], [ -100.0, 40.0 ], [ -110.0, 40.0 ], [ -110.0, 30.0 ], [ -100.0, 30.0 ] ] ] } },
{ "type": "Feature", "properties": { "row": 12, "col": 8 }, "geometry": { "type": "Polygon", "coordinates": [ [ [ -90.0, 30.0 ], [ -90.0, 40.0 ], [ -100.0, 40.0 ], [ -100.0, 30.0 ], [ -90.0, 30.0 ] ] ] } },
{ "type": "Feature", "properties": { "row": 12, "col": 9 }, "geometry": { "type": "Polygon", "coordinates": [ [ [ -80.0, 30.0 ], [ -80.0, 40.0 ], [ -90.0, 40.0 ], [ -90.0, 30.0 ], [ -80.0, 30.0 ] ] ] } },
{ "type": "Feature", "properties": { "row": 12, "col": 10 }, "geometry": { "type": "Polygon", "coordinates": [ [ [ -70.0, 30.0 ], [ -70.0, 40.0 ], [ -80.0, 40.0 ], [ -80.0, 30.0 ], [ -70.0, 30.0 ] ] ] } },
{ "type": "Feature", "properties": { "row": 12, "col": 17 }, "geometry": { "type": "Polygon", "coordinates": [ [ [ 0.0, 30.0 ], [ 0.0, 40.0 ], [ -10.0, 40.0 ], [ -10.0, 30.0 ], [ 0.0, 30.0 ] ] ] } },
{ "type": "Feature", "properties": { "row": 12, "col": 18 }, "geometry": { "type": "Polygon", "coordinates": [ [ [ 10.0, 30.0 ], [ 10.0, 40.0 ], [ 0.0, 40.0 ], [ 0.0, 30.0 ], [ 10.0, 30.0 ] ] ] } },
{ "type": "Feature", "properties": { "row": 12, "col": 19 }, "geometry": { "type": "Polygon", "coordinates": [ [ [ 20.0, 30.0 ], [ 20.0, 40.0 ], [ 10.0, 40.0 ], [ 10.0, 30.0 ], [ 20.0, 30.0 ] ] ] } },
{ "type": "Feature", "properties": { "row": 12, "col": 20 }, "geometry": { "type": "Polygon", "coordinates": [ [ [ 30.0, 30.0 ], [ 30.0, 40.0 ], [ 20.0, 40.0 ], [ 20.0, 30.0 ], [ 30.0, 30.0 ] ] ] } },
{ "type": "Feature", "properties": { "row": 12, "col": 21 }, "geometry": { "type": "Polygon", "coordinates": [ [ [ 40.0, 30.0 ], [ 40.0, 40.0 ], [ 30.0, 40.0 ], [ 30.0, 30.0 ], [ 40.0, 30.0 ] ] ] } },
{ "type": "Feature", "properties": { "row": 12, "col": 22 }, "geometry": { "type": "Polygon", "coordinates": [ [ [ 50.0, 30.0 ], [ 50.0, 40.0 ], [ 40.0, 40.0 ], [ 40.0, 30.0 ], [ 50.0, 30.0 ] ] ] } },
{ "type": "Feature", "properties": { "row": 12, "col": 23 }, "geometry": { "type": "Polygon", "coordinates": [ [ [ 60.0, 30.0 ], [ 60.0, 40.0 ], [ 50.0, 40.0 ], [ 50.0, 30.0 ], [ 60.0, 30.0 ] ] ] } },
{ "type": "Feature", "properties": { "row": 12, "col": 24 }, "geometry": { "type": "Polygon", "coordinates": [ [ [ 70.0, 30.0 ], [ 70.0, 40.0 ], [ 60.0, 40.0 ], [ 60.0, 30.0 ], [ 70.0, 30.0 ] ] ] } },
{ "type": "Feature", "properties": { "row": 12, "col": 25 }, "geometry": { "type": "Polygon", "coordinates": [ [ [ 80.0, 30.0 ], [ 80.0, 40.0 ], [ 70.0, 40.0 ], [ 70.0, 30.0 ], [ 80.0, 30.0 ] ] ] } },
{ "type": "Feature", "properties": { "row": 12, "col": 26 }, "geometry": { "type": "Polygon", "coordinates": [ [ [ 90.0, 30.0 ], [ 90.0, 40.0 ], [ 80.0, 40.0 ], [ 80.0, 30.0 ], [ 90.0, 30.0 ] ] ] } },
{ "type": "Feature", "properties": { "row": 12, "col": 27 }, "geometry": { "type": "Polygon", "coordinates": [ [ [ 100.0, 30.0 ], [ 100.0, 40.0 ], [ 90.0, 40.0 ], [ 90.0, 30.0 ], [ 100.0, 30.0 ] ] ] } },
{ "type": "Feature", "properties": { "row": 12, "col": 28 }, "geometry": { "type": "Polygon", "coordinates": [ [ [ 110.0, 30.0 ], [ 110.0, 40.0 ], [ 100.0, 40.0 ], [ 100.0, 30.0 ], [ 110.0, 30.0 ] ] ] } },
{ "type": "Feature", "properties": { "row": 12, "col": 29 }, "geometry": { "type": "Polygon", "coordinates": [ [ [ 120.0, 30.0 ], [ 120.0, 40.0 ], [ 110.0, 40.0 ], [ 110.0, 30.0 ], [ 120.0, 30.0 ] ] ] } },
{ "type": "Feature", "properties": { "row": 12, "col": 30 }, "geometry": { "type": "Polygon", "coordinates": [ [ [ 130.0, 30.0 ], [ 130.0, 40.0 ], [ 120.0, 40.0 ], [ 120.0, 30.0 ], [ 130.0, 30.0 ] ] ] } },
{ "type": "Feature", "properties": { "row": 12, "col": 31 }, "geometry": { "type": "Polygon", "coordinates": [ [ [ 140.0, 30.0 ], [ 140.0, 40.0 ], [ 130.0, 40.0 ], [ 130.0, 30.0 ], [ 140.0, 30.0 ] ] ] } },
{ "type": "Feature", "properties": { "row": 12, "col": 32 }, "geometry": { "type": "Polygon", "coordinates": [ [ [ 150.0, 30.0 ], [ 150.0, 40.0 ], [ 140.0, 40.0 ], [ 140.0, 30.0 ], [ 150.0, 30.0 ] ] ] } },
{ "type": "Feature", "properties": { "row": 13, "col": 5 }, "geometry": { "type": "Polygon", "coordinates": [ [ [ -120.0, 40.0 ], [ -120.0, 50.0 ], [ -130.0, 50.0 ], [ -130.0, 40.0 ], [ -120.0, 40.0 ] ] ] } },
{ "type": "Feature", "properties": { "row": 13, "col": 6 }, "geometry": { "type": "Polygon", "coordinates": [ [ [ -110.0, 40.0 ], [ -110.0, 50.0 ], [ -120.0, 50.0 ], [ -120.0, 40.0 ], [ -110.0, 40.0 ] ] ] } },
{ "type": "Feature", "properties": { "row": 13, "col": 7 }, "geometry": { "type": "Polygon", "coordinates": [ [ [ -100.0, 40.0 ], [ -100.0, 50.0 ], [ -110.0, 50.0 ], [ -110.0, 40.0 ], [ -100.0, 40.0 ] ] ] } },
{ "type": "Feature", "properties": { "row": 13, "col": 8 }, "geometry": { "type": "Polygon", "coordinates": [ [ [ -90.0, 40.0 ], [ -90.0, 50.0 ], [ -100.0, 50.0 ], [ -100.0, 40.0 ], [ -90.0, 40.0 ] ] ] } },
{ "type": "Feature", "properties": { "row": 13, "col": 9 }, "geometry": { "type": "Polygon", "coordinates": [ [ [ -80.0, 40.0 ], [ -80.0, 50.0 ], [ -90.0, 50.0 ], [ -90.0, 40.0 ], [ -80.0, 40.0 ] ] ] } },
{ "type": "Feature", "properties": { "row": 13, "col": 10 }, "geometry": { "type": "Polygon", "coordinates": [ [ [ -70.0, 40.0 ], [ -70.0, 50.0 ], [ -80.0, 50.0 ], [ -80.0, 40.0 ], [ -70.0, 40.0 ] ] ] } },
{ "type": "Feature", "properties": { "row": 13, "col": 11 }, "geometry": { "type": "Polygon", "coordinates": [ [ [ -60.0, 40.0 ], [ -60.0, 50.0 ], [ -70.0, 50.0 ], [ -70.0, 40.0 ], [ -60.0, 40.0 ] ] ] } },
{ "type": "Feature", "properties": { "row": 13, "col": 12 }, "geometry": { "type": "Polygon", "coordinates": [ [ [ -50.0, 40.0 ], [ -50.0, 50.0 ], [ -60.0, 50.0 ], [ -60.0, 40.0 ], [ -50.0, 40.0 ] ] ] } },
{ "type": "Feature", "properties": { "row": 13, "col": 17 }, "geometry": { "type": "Polygon", "coordinates": [ [ [ 0.0, 40.0 ], [ 0.0, 50.0 ], [ -10.0, 50.0 ], [ -10.0, 40.0 ], [ 0.0, 40.0 ] ] ] } },
{ "type": "Feature", "properties": { "row": 13, "col": 18 }, "geometry": { "type": "Polygon", "coordinates": [ [ [ 10.0, 40.0 ], [ 10.0, 50.0 ], [ 0.0, 50.0 ], [ 0.0, 40.0 ], [ 10.0, 40.0 ] ] ] } },
{ "type": "Feature", "properties": { "row": 13, "col": 19 }, "geometry": { "type": "Polygon", "coordinates": [ [ [ 20.0, 40.0 ], [ 20.0, 50.0 ], [ 10.0, 50.0 ], [ 10.0, 40.0 ], [ 20.0, 40.0 ] ] ] } },
{ "type": "Feature", "properties": { "row": 13, "col": 20 }, "geometry": { "type": "Polygon", "coordinates": [ [ [ 30.0, 40.0 ], [ 30.0, 50.0 ], [ 20.0, 50.0 ], [ 20.0, 40.0 ], [ 30.0, 40.0 ] ] ] } },
{ "type": "Feature", "properties": { "row": 13, "col": 21 }, "geometry": { "type": "Polygon", "coordinates": [ [ [ 40.0, 40.0 ], [ 40.0, 50.0 ], [ 30.0, 50.0 ], [ 30.0, 40.0 ], [ 40.0, 40.0 ] ] ] } },
{ "type": "Feature", "properties": { "row": 13, "col": 22 }, "geometry": { "type": "Polygon", "coordinates": [ [ [ 50.0, 40.0 ], [ 50.0, 50.0 ], [ 40.0, 50.0 ], [ 40.0, 40.0 ], [ 50.0, 40.0 ] ] ] } },
{ "type": "Feature", "properties": { "row": 13, "col": 23 }, "geometry": { "type": "Polygon", "coordinates": [ [ [ 60.0, 40.0 ], [ 60.0, 50.0 ], [ 50.0, 50.0 ], [ 50.0, 40.0 ], [ 60.0, 40.0 ] ] ] } },
{ "type": "Feature", "properties": { "row": 13, "col": 24 }, "geometry": { "type": "Polygon", "coordinates": [ [ [ 70.0, 40.0 ], [ 70.0, 50.0 ], [ 60.0, 50.0 ], [ 60.0, 40.0 ], [ 70.0, 40.0 ] ] ] } },
{ "type": "Feature", "properties": { "row": 13, "col": 25 }, "geometry": { "type": "Polygon", "coordinates": [ [ [ 80.0, 40.0 ], [ 80.0, 50.0 ], [ 70.0, 50.0 ], [ 70.0, 40.0 ], [ 80.0, 40.0 ] ] ] } },
{ "type": "Feature", "properties": { "row": 13, "col": 26 }, "geometry": { "type": "Polygon", "coordinates": [ [ [ 90.0, 40.0 ], [ 90.0, 50.0 ], [ 80.0, 50.0 ], [ 80.0, 40.0 ], [ 90.0, 40.0 ] ] ] } },
{ "type": "Feature", "properties": { "row": 13, "col": 27 }, "geometry": { "type": "Polygon", "coordinates": [ [ [ 100.0, 40.0 ], [ 100.0, 50.0 ], [ 90.0, 50.0 ], [ 90.0, 40.0 ], [ 100.0, 40.0 ] ] ] } },
{ "type": "Feature", "properties": { "row": 13, "col": 28 }, "geometry": { "type": "Polygon", "coordinates": [ [ [ 110.0, 40.0 ], [ 110.0, 50.0 ], [ 100.0, 50.0 ], [ 100.0, 40.0 ], [ 110.0, 40.0 ] ] ] } },
{ "type": "Feature", "properties": { "row": 13, "col": 29 }, "geometry": { "type": "Polygon", "coordinates": [ [ [ 120.0, 40.0 ], [ 120.0, 50.0 ], [ 110.0, 50.0 ], [ 110.0, 40.0 ], [ 120.0, 40.0 ] ] ] } },
{ "type": "Feature", "properties": { "row": 13, "col": 30 }, "geometry": { "type": "Polygon", "coordinates": [ [ [ 130.0, 40.0 ], [ 130.0, 50.0 ], [ 120.0, 50.0 ], [ 120.0, 40.0 ], [ 130.0, 40.0 ] ] ] } },
{ "type": "Feature", "properties": { "row": 13, "col": 31 }, "geometry": { "type": "Polygon", "coordinates": [ [ [ 140.0, 40.0 ], [ 140.0, 50.0 ], [ 130.0, 50.0 ], [ 130.0, 40.0 ], [ 140.0, 40.0 ] ] ] } },
{ "type": "Feature", "properties": { "row": 13, "col": 32 }, "geometry": { "type": "Polygon", "coordinates": [ [ [ 150.0, 40.0 ], [ 150.0, 50.0 ], [ 140.0, 50.0 ], [ 140.0, 40.0 ], [ 150.0, 40.0 ] ] ] } },
{ "type": "Feature", "properties": { "row": 14, "col": 1 }, "geometry": { "type": "Polygon", "coordinates": [ [ [ -160.0, 50.0 ], [ -160.0, 60.0 ], [ -170.0, 60.0 ], [ -170.0, 50.0 ], [ -160.0, 50.0 ] ] ] } },
{ "type": "Feature", "properties": { "row": 14, "col": 2 }, "geometry": { "type": "Polygon", "coordinates": [ [ [ -150.0, 50.0 ], [ -150.0, 60.0 ], [ -160.0, 60.0 ], [ -160.0, 50.0 ], [ -150.0, 50.0 ] ] ] } },
{ "type": "Feature", "properties": { "row": 14, "col": 3 }, "geometry": { "type": "Polygon", "coordinates": [ [ [ -140.0, 50.0 ], [ -140.0, 60.0 ], [ -150.0, 60.0 ], [ -150.0, 50.0 ], [ -140.0, 50.0 ] ] ] } },
{ "type": "Feature", "properties": { "row": 14, "col": 4 }, "geometry": { "type": "Polygon", "coordinates": [ [ [ -130.0, 50.0 ], [ -130.0, 60.0 ], [ -140.0, 60.0 ], [ -140.0, 50.0 ], [ -130.0, 50.0 ] ] ] } },
{ "type": "Feature", "properties": { "row": 14, "col": 5 }, "geometry": { "type": "Polygon", "coordinates": [ [ [ -120.0, 50.0 ], [ -120.0, 60.0 ], [ -130.0, 60.0 ], [ -130.0, 50.0 ], [ -120.0, 50.0 ] ] ] } },
{ "type": "Feature", "properties": { "row": 14, "col": 6 }, "geometry": { "type": "Polygon", "coordinates": [ [ [ -110.0, 50.0 ], [ -110.0, 60.0 ], [ -120.0, 60.0 ], [ -120.0, 50.0 ], [ -110.0, 50.0 ] ] ] } },
{ "type": "Feature", "properties": { "row": 14, "col": 7 }, "geometry": { "type": "Polygon", "coordinates": [ [ [ -100.0, 50.0 ], [ -100.0, 60.0 ], [ -110.0, 60.0 ], [ -110.0, 50.0 ], [ -100.0, 50.0 ] ] ] } },
{ "type": "Feature", "properties": { "row": 14, "col": 8 }, "geometry": { "type": "Polygon", "coordinates": [ [ [ -90.0, 50.0 ], [ -90.0, 60.0 ], [ -100.0, 60.0 ], [ -100.0, 50.0 ], [ -90.0, 50.0 ] ] ] } },
{ "type": "Feature", "properties": { "row": 14, "col": 9 }, "geometry": { "type": "Polygon", "coordinates": [ [ [ -80.0, 50.0 ], [ -80.0, 60.0 ], [ -90.0, 60.0 ], [ -90.0, 50.0 ], [ -80.0, 50.0 ] ] ] } },
{ "type": "Feature", "properties": { "row": 14, "col": 10 }, "geometry": { "type": "Polygon", "coordinates": [ [ [ -70.0, 50.0 ], [ -70.0, 60.0 ], [ -80.0, 60.0 ], [ -80.0, 50.0 ], [ -70.0, 50.0 ] ] ] } },
{ "type": "Feature", "properties": { "row": 14, "col": 11 }, "geometry": { "type": "Polygon", "coordinates": [ [ [ -60.0, 50.0 ], [ -60.0, 60.0 ], [ -70.0, 60.0 ], [ -70.0, 50.0 ], [ -60.0, 50.0 ] ] ] } },
{ "type": "Feature", "properties": { "row": 14, "col": 12 }, "geometry": { "type": "Polygon", "coordinates": [ [ [ -50.0, 50.0 ], [ -50.0, 60.0 ], [ -60.0, 60.0 ], [ -60.0, 50.0 ], [ -50.0, 50.0 ] ] ] } },
{ "type": "Feature", "properties": { "row": 14, "col": 17 }, "geometry": { "type": "Polygon", "coordinates": [ [ [ 0.0, 50.0 ], [ 0.0, 60.0 ], [ -10.0, 60.0 ], [ -10.0, 50.0 ], [ 0.0, 50.0 ] ] ] } },
{ "type": "Feature", "properties": { "row": 14, "col": 18 }, "geometry": { "type": "Polygon", "coordinates": [ [ [ 10.0, 50.0 ], [ 10.0, 60.0 ], [ 0.0, 60.0 ], [ 0.0, 50.0 ], [ 10.0, 50.0 ] ] ] } },
{ "type": "Feature", "properties": { "row": 14, "col": 19 }, "geometry": { "type": "Polygon", "coordinates": [ [ [ 20.0, 50.0 ], [ 20.0, 60.0 ], [ 10.0, 60.0 ], [ 10.0, 50.0 ], [ 20.0, 50.0 ] ] ] } },
{ "type": "Feature", "properties": { "row": 14, "col": 20 }, "geometry": { "type": "Polygon", "coordinates": [ [ [ 30.0, 50.0 ], [ 30.0, 60.0 ], [ 20.0, 60.0 ], [ 20.0, 50.0 ], [ 30.0, 50.0 ] ] ] } },
{ "type": "Feature", "properties": { "row": 14, "col": 21 }, "geometry": { "type": "Polygon", "coordinates": [ [ [ 40.0, 50.0 ], [ 40.0, 60.0 ], [ 30.0, 60.0 ], [ 30.0, 50.0 ], [ 40.0, 50.0 ] ] ] } },
{ "type": "Feature", "properties": { "row": 14, "col": 22 }, "geometry": { "type": "Polygon", "coordinates": [ [ [ 50.0, 50.0 ], [ 50.0, 60.0 ], [ 40.0, 60.0 ], [ 40.0, 50.0 ], [ 50.0, 50.0 ] ] ] } },
{ "type": "Feature", "properties": { "row": 14, "col": 23 }, "geometry": { "type": "Polygon", "coordinates": [ [ [ 60.0, 50.0 ], [ 60.0, 60.0 ], [ 50.0, 60.0 ], [ 50.0, 50.0 ], [ 60.0, 50.0 ] ] ] } },
{ "type": "Feature", "properties": { "row": 14, "col": 24 }, "geometry": { "type": "Polygon", "coordinates": [ [ [ 70.0, 50.0 ], [ 70.0, 60.0 ], [ 60.0, 60.0 ], [ 60.0, 50.0 ], [ 70.0, 50.0 ] ] ] } },
{ "type": "Feature", "properties": { "row": 14, "col": 25 }, "geometry": { "type": "Polygon", "coordinates": [ [ [ 80.0, 50.0 ], [ 80.0, 60.0 ], [ 70.0, 60.0 ], [ 70.0, 50.0 ], [ 80.0, 50.0 ] ] ] } },
{ "type": "Feature", "properties": { "row": 14, "col": 26 }, "geometry": { "type": "Polygon", "coordinates": [ [ [ 90.0, 50.0 ], [ 90.0, 60.0 ], [ 80.0, 60.0 ], [ 80.0, 50.0 ], [ 90.0, 50.0 ] ] ] } },
{ "type": "Feature", "properties": { "row": 14, "col": 27 }, "geometry": { "type": "Polygon", "coordinates": [ [ [ 100.0, 50.0 ], [ 100.0, 60.0 ], [ 90.0, 60.0 ], [ 90.0, 50.0 ], [ 100.0, 50.0 ] ] ] } },
{ "type": "Feature", "properties": { "row": 14, "col": 28 }, "geometry": { "type": "Polygon", "coordinates": [ [ [ 110.0, 50.0 ], [ 110.0, 60.0 ], [ 100.0, 60.0 ], [ 100.0, 50.0 ], [ 110.0, 50.0 ] ] ] } },
{ "type": "Feature", "properties": { "row": 14, "col": 29 }, "geometry": { "type": "Polygon", "coordinates": [ [ [ 120.0, 50.0 ], [ 120.0, 60.0 ], [ 110.0, 60.0 ], [ 110.0, 50.0 ], [ 120.0, 50.0 ] ] ] } },
{ "type": "Feature", "properties": { "row": 14, "col": 30 }, "geometry": { "type": "Polygon", "coordinates": [ [ [ 130.0, 50.0 ], [ 130.0, 60.0 ], [ 120.0, 60.0 ], [ 120.0, 50.0 ], [ 130.0, 50.0 ] ] ] } },
{ "type": "Feature", "properties": { "row": 14, "col": 31 }, "geometry": { "type": "Polygon", "coordinates": [ [ [ 140.0, 50.0 ], [ 140.0, 60.0 ], [ 130.0, 60.0 ], [ 130.0, 50.0 ], [ 140.0, 50.0 ] ] ] } },
{ "type": "Feature", "properties": { "row": 14, "col": 32 }, "geometry": { "type": "Polygon", "coordinates": [ [ [ 150.0, 50.0 ], [ 150.0, 60.0 ], [ 140.0, 60.0 ], [ 140.0, 50.0 ], [ 150.0, 50.0 ] ] ] } },
{ "type": "Feature", "properties": { "row": 14, "col": 33 }, "geometry": { "type": "Polygon", "coordinates": [ [ [ 160.0, 50.0 ], [ 160.0, 60.0 ], [ 150.0, 60.0 ], [ 150.0, 50.0 ], [ 160.0, 50.0 ] ] ] } },
{ "type": "Feature", "properties": { "row": 14, "col": 34 }, "geometry": { "type": "Polygon", "coordinates": [ [ [ 170.0, 50.0 ], [ 170.0, 60.0 ], [ 160.0, 60.0 ], [ 160.0, 50.0 ], [ 170.0, 50.0 ] ] ] } },
{ "type": "Feature", "properties": { "row": 14, "col": 35 }, "geometry": { "type": "Polygon", "coordinates": [ [ [ 180.0, 50.0 ], [ 180.0, 60.0 ], [ 170.0, 60.0 ], [ 170.0, 50.0 ], [ 180.0, 50.0 ] ] ] } },
{ "type": "Feature", "properties": { "row": 15, "col": 0 }, "geometry": { "type": "Polygon", "coordinates": [ [ [ -170.0, 60.0 ], [ -170.0, 70.0 ], [ -180.0, 70.0 ], [ -180.0, 60.0 ], [ -170.0, 60.0 ] ] ] } },
{ "type": "Feature", "properties": { "row": 15, "col": 1 }, "geometry": { "type": "Polygon", "coordinates": [ [ [ -160.0, 60.0 ], [ -160.0, 70.0 ], [ -170.0, 70.0 ], [ -170.0, 60.0 ], [ -160.0, 60.0 ] ] ] } },
{ "type": "Feature", "properties": { "row": 15, "col": 2 }, "geometry": { "type": "Polygon", "coordinates": [ [ [ -150.0, 60.0 ], [ -150.0, 70.0 ], [ -160.0, 70.0 ], [ -160.0, 60.0 ], [ -150.0, 60.0 ] ] ] } },
{ "type": "Feature", "properties": { "row": 15, "col": 3 }, "geometry": { "type": "Polygon", "coordinates": [ [ [ -140.0, 60.0 ], [ -140.0, 70.0 ], [ -150.0, 70.0 ], [ -150.0, 60.0 ], [ -140.0, 60.0 ] ] ] } },
{ "type": "Feature", "properties": { "row": 15, "col": 4 }, "geometry": { "type": "Polygon", "coordinates": [ [ [ -130.0, 60.0 ], [ -130.0, 70.0 ], [ -140.0, 70.0 ], [ -140.0, 60.0 ], [ -130.0, 60.0 ] ] ] } },
{ "type": "Feature", "properties": { "row": 15, "col": 5 }, "geometry": { "type": "Polygon", "coordinates": [ [ [ -120.0, 60.0 ], [ -120.0, 70.0 ], [ -130.0, 70.0 ], [ -130.0, 60.0 ], [ -120.0, 60.0 ] ] ] } },
{ "type": "Feature", "properties": { "row": 15, "col": 6 }, "geometry": { "type": "Polygon", "coordinates": [ [ [ -110.0, 60.0 ], [ -110.0, 70.0 ], [ -120.0, 70.0 ], [ -120.0, 60.0 ], [ -110.0, 60.0 ] ] ] } },
{ "type": "Feature", "properties": { "row": 15, "col": 7 }, "geometry": { "type": "Polygon", "coordinates": [ [ [ -100.0, 60.0 ], [ -100.0, 70.0 ], [ -110.0, 70.0 ], [ -110.0, 60.0 ], [ -100.0, 60.0 ] ] ] } },
{ "type": "Feature", "properties": { "row": 15, "col": 8 }, "geometry": { "type": "Polygon", "coordinates": [ [ [ -90.0, 60.0 ], [ -90.0, 70.0 ], [ -100.0, 70.0 ], [ -100.0, 60.0 ], [ -90.0, 60.0 ] ] ] } },
{ "type": "Feature", "properties": { "row": 15, "col": 9 }, "geometry": { "type": "Polygon", "coordinates": [ [ [ -80.0, 60.0 ], [ -80.0, 70.0 ], [ -90.0, 70.0 ], [ -90.0, 60.0 ], [ -80.0, 60.0 ] ] ] } },
{ "type": "Feature", "properties": { "row": 15, "col": 10 }, "geometry": { "type": "Polygon", "coordinates": [ [ [ -70.0, 60.0 ], [ -70.0, 70.0 ], [ -80.0, 70.0 ], [ -80.0, 60.0 ], [ -70.0, 60.0 ] ] ] } },
{ "type": "Feature", "properties": { "row": 15, "col": 11 }, "geometry": { "type": "Polygon", "coordinates": [ [ [ -60.0, 60.0 ], [ -60.0, 70.0 ], [ -70.0, 70.0 ], [ -70.0, 60.0 ], [ -60.0, 60.0 ] ] ] } },
{ "type": "Feature", "properties": { "row": 15, "col": 12 }, "geometry": { "type": "Polygon", "coordinates": [ [ [ -50.0, 60.0 ], [ -50.0, 70.0 ], [ -60.0, 70.0 ], [ -60.0, 60.0 ], [ -50.0, 60.0 ] ] ] } },
{ "type": "Feature", "properties": { "row": 15, "col": 13 }, "geometry": { "type": "Polygon", "coordinates": [ [ [ -40.0, 60.0 ], [ -40.0, 70.0 ], [ -50.0, 70.0 ], [ -50.0, 60.0 ], [ -40.0, 60.0 ] ] ] } },
{ "type": "Feature", "properties": { "row": 15, "col": 14 }, "geometry": { "type": "Polygon", "coordinates": [ [ [ -30.0, 60.0 ], [ -30.0, 70.0 ], [ -40.0, 70.0 ], [ -40.0, 60.0 ], [ -30.0, 60.0 ] ] ] } },
{ "type": "Feature", "properties": { "row": 15, "col": 15 }, "geometry": { "type": "Polygon", "coordinates": [ [ [ -20.0, 60.0 ], [ -20.0, 70.0 ], [ -30.0, 70.0 ], [ -30.0, 60.0 ], [ -20.0, 60.0 ] ] ] } },
{ "type": "Feature", "properties": { "row": 15, "col": 16 }, "geometry": { "type": "Polygon", "coordinates": [ [ [ -10.0, 60.0 ], [ -10.0, 70.0 ], [ -20.0, 70.0 ], [ -20.0, 60.0 ], [ -10.0, 60.0 ] ] ] } },
{ "type": "Feature", "properties": { "row": 15, "col": 18 }, "geometry": { "type": "Polygon", "coordinates": [ [ [ 10.0, 60.0 ], [ 10.0, 70.0 ], [ 0.0, 70.0 ], [ 0.0, 60.0 ], [ 10.0, 60.0 ] ] ] } },
{ "type": "Feature", "properties": { "row": 15, "col": 19 }, "geometry": { "type": "Polygon", "coordinates": [ [ [ 20.0, 60.0 ], [ 20.0, 70.0 ], [ 10.0, 70.0 ], [ 10.0, 60.0 ], [ 20.0, 60.0 ] ] ] } },
{ "type": "Feature", "properties": { "row": 15, "col": 20 }, "geometry": { "type": "Polygon", "coordinates": [ [ [ 30.0, 60.0 ], [ 30.0, 70.0 ], [ 20.0, 70.0 ], [ 20.0, 60.0 ], [ 30.0, 60.0 ] ] ] } },
{ "type": "Feature", "properties": { "row": 15, "col": 21 }, "geometry": { "type": "Polygon", "coordinates": [ [ [ 40.0, 60.0 ], [ 40.0, 70.0 ], [ 30.0, 70.0 ], [ 30.0, 60.0 ], [ 40.0, 60.0 ] ] ] } },
{ "type": "Feature", "properties": { "row": 15, "col": 22 }, "geometry": { "type": "Polygon", "coordinates": [ [ [ 50.0, 60.0 ], [ 50.0, 70.0 ], [ 40.0, 70.0 ], [ 40.0, 60.0 ], [ 50.0, 60.0 ] ] ] } },
{ "type": "Feature", "properties": { "row": 15, "col": 23 }, "geometry": { "type": "Polygon", "coordinates": [ [ [ 60.0, 60.0 ], [ 60.0, 70.0 ], [ 50.0, 70.0 ], [ 50.0, 60.0 ], [ 60.0, 60.0 ] ] ] } },
{ "type": "Feature", "properties": { "row": 15, "col": 24 }, "geometry": { "type": "Polygon", "coordinates": [ [ [ 70.0, 60.0 ], [ 70.0, 70.0 ], [ 60.0, 70.0 ], [ 60.0, 60.0 ], [ 70.0, 60.0 ] ] ] } },
{ "type": "Feature", "properties": { "row": 15, "col": 25 }, "geometry": { "type": "Polygon", "coordinates": [ [ [ 80.0, 60.0 ], [ 80.0, 70.0 ], [ 70.0, 70.0 ], [ 70.0, 60.0 ], [ 80.0, 60.0 ] ] ] } },
{ "type": "Feature", "properties": { "row": 15, "col": 26 }, "geometry": { "type": "Polygon", "coordinates": [ [ [ 90.0, 60.0 ], [ 90.0, 70.0 ], [ 80.0, 70.0 ], [ 80.0, 60.0 ], [ 90.0, 60.0 ] ] ] } },
{ "type": "Feature", "properties": { "row": 15, "col": 27 }, "geometry": { "type": "Polygon", "coordinates": [ [ [ 100.0, 60.0 ], [ 100.0, 70.0 ], [ 90.0, 70.0 ], [ 90.0, 60.0 ], [ 100.0, 60.0 ] ] ] } },
{ "type": "Feature", "properties": { "row": 15, "col": 28 }, "geometry": { "type": "Polygon", "coordinates": [ [ [ 110.0, 60.0 ], [ 110.0, 70.0 ], [ 100.0, 70.0 ], [ 100.0, 60.0 ], [ 110.0, 60.0 ] ] ] } },
{ "type": "Feature", "properties": { "row": 15, "col": 29 }, "geometry": { "type": "Polygon", "coordinates": [ [ [ 120.0, 60.0 ], [ 120.0, 70.0 ], [ 110.0, 70.0 ], [ 110.0, 60.0 ], [ 120.0, 60.0 ] ] ] } },
{ "type": "Feature", "properties": { "row": 15, "col": 30 }, "geometry": { "type": "Polygon", "coordinates": [ [ [ 130.0, 60.0 ], [ 130.0, 70.0 ], [ 120.0, 70.0 ], [ 120.0, 60.0 ], [ 130.0, 60.0 ] ] ] } },
{ "type": "Feature", "properties": { "row": 15, "col": 31 }, "geometry": { "type": "Polygon", "coordinates": [ [ [ 140.0, 60.0 ], [ 140.0, 70.0 ], [ 130.0, 70.0 ], [ 130.0, 60.0 ], [ 140.0, 60.0 ] ] ] } },
{ "type": "Feature", "properties": { "row": 15, "col": 32 }, "geometry": { "type": "Polygon", "coordinates": [ [ [ 150.0, 60.0 ], [ 150.0, 70.0 ], [ 140.0, 70.0 ], [ 140.0, 60.0 ], [ 150.0, 60.0 ] ] ] } },
{ "type": "Feature", "properties": { "row": 15, "col": 33 }, "geometry": { "type": "Polygon", "coordinates": [ [ [ 160.0, 60.0 ], [ 160.0, 70.0 ], [ 150.0, 70.0 ], [ 150.0, 60.0 ], [ 160.0, 60.0 ] ] ] } },
{ "type": "Feature", "properties": { "row": 15, "col": 34 }, "geometry": { "type": "Polygon", "coordinates": [ [ [ 170.0, 60.0 ], [ 170.0, 70.0 ], [ 160.0, 70.0 ], [ 160.0, 60.0 ], [ 170.0, 60.0 ] ] ] } },
{ "type": "Feature", "properties": { "row": 15, "col": 35 }, "geometry": { "type": "Polygon", "coordinates": [ [ [ 180.0, 60.0 ], [ 180.0, 70.0 ], [ 170.0, 70.0 ], [ 170.0, 60.0 ], [ 180.0, 60.0 ] ] ] } },
{ "type": "Feature", "properties": { "row": 16, "col": 0 }, "geometry": { "type": "Polygon", "coordinates": [ [ [ -170.0, 70.0 ], [ -170.0, 80.0 ], [ -180.0, 80.0 ], [ -180.0, 70.0 ], [ -170.0, 70.0 ] ] ] } },
{ "type": "Feature", "properties": { "row": 16, "col": 1 }, "geometry": { "type": "Polygon", "coordinates": [ [ [ -160.0, 70.0 ], [ -160.0, 80.0 ], [ -170.0, 80.0 ], [ -170.0, 70.0 ], [ -160.0, 70.0 ] ] ] } },
{ "type": "Feature", "properties": { "row": 16, "col": 2 }, "geometry": { "type": "Polygon", "coordinates": [ [ [ -150.0, 70.0 ], [ -150.0, 80.0 ], [ -160.0, 80.0 ], [ -160.0, 70.0 ], [ -150.0, 70.0 ] ] ] } },
{ "type": "Feature", "properties": { "row": 16, "col": 3 }, "geometry": { "type": "Polygon", "coordinates": [ [ [ -140.0, 70.0 ], [ -140.0, 80.0 ], [ -150.0, 80.0 ], [ -150.0, 70.0 ], [ -140.0, 70.0 ] ] ] } },
{ "type": "Feature", "properties": { "row": 16, "col": 4 }, "geometry": { "type": "Polygon", "coordinates": [ [ [ -130.0, 70.0 ], [ -130.0, 80.0 ], [ -140.0, 80.0 ], [ -140.0, 70.0 ], [ -130.0, 70.0 ] ] ] } },
{ "type": "Feature", "properties": { "row": 16, "col": 5 }, "geometry": { "type": "Polygon", "coordinates": [ [ [ -120.0, 70.0 ], [ -120.0, 80.0 ], [ -130.0, 80.0 ], [ -130.0, 70.0 ], [ -120.0, 70.0 ] ] ] } },
{ "type": "Feature", "properties": { "row": 16, "col": 6 }, "geometry": { "type": "Polygon", "coordinates": [ [ [ -110.0, 70.0 ], [ -110.0, 80.0 ], [ -120.0, 80.0 ], [ -120.0, 70.0 ], [ -110.0, 70.0 ] ] ] } },
{ "type": "Feature", "properties": { "row": 16, "col": 7 }, "geometry": { "type": "Polygon", "coordinates": [ [ [ -100.0, 70.0 ], [ -100.0, 80.0 ], [ -110.0, 80.0 ], [ -110.0, 70.0 ], [ -100.0, 70.0 ] ] ] } },
{ "type": "Feature", "properties": { "row": 16, "col": 8 }, "geometry": { "type": "Polygon", "coordinates": [ [ [ -90.0, 70.0 ], [ -90.0, 80.0 ], [ -100.0, 80.0 ], [ -100.0, 70.0 ], [ -90.0, 70.0 ] ] ] } },
{ "type": "Feature", "properties": { "row": 16, "col": 9 }, "geometry": { "type": "Polygon", "coordinates": [ [ [ -80.0, 70.0 ], [ -80.0, 80.0 ], [ -90.0, 80.0 ], [ -90.0, 70.0 ], [ -80.0, 70.0 ] ] ] } },
{ "type": "Feature", "properties": { "row": 16, "col": 10 }, "geometry": { "type": "Polygon", "coordinates": [ [ [ -70.0, 70.0 ], [ -70.0, 80.0 ], [ -80.0, 80.0 ], [ -80.0, 70.0 ], [ -70.0, 70.0 ] ] ] } },
{ "type": "Feature", "properties": { "row": 16, "col": 11 }, "geometry": { "type": "Polygon", "coordinates": [ [ [ -60.0, 70.0 ], [ -60.0, 80.0 ], [ -70.0, 80.0 ], [ -70.0, 70.0 ], [ -60.0, 70.0 ] ] ] } },
{ "type": "Feature", "properties": { "row": 16, "col": 12 }, "geometry": { "type": "Polygon", "coordinates": [ [ [ -50.0, 70.0 ], [ -50.0, 80.0 ], [ -60.0, 80.0 ], [ -60.0, 70.0 ], [ -50.0, 70.0 ] ] ] } },
{ "type": "Feature", "properties": { "row": 16, "col": 13 }, "geometry": { "type": "Polygon", "coordinates": [ [ [ -40.0, 70.0 ], [ -40.0, 80.0 ], [ -50.0, 80.0 ], [ -50.0, 70.0 ], [ -40.0, 70.0 ] ] ] } },
{ "type": "Feature", "properties": { "row": 16, "col": 14 }, "geometry": { "type": "Polygon", "coordinates": [ [ [ -30.0, 70.0 ], [ -30.0, 80.0 ], [ -40.0, 80.0 ], [ -40.0, 70.0 ], [ -30.0, 70.0 ] ] ] } },
{ "type": "Feature", "properties": { "row": 16, "col": 15 }, "geometry": { "type": "Polygon", "coordinates": [ [ [ -20.0, 70.0 ], [ -20.0, 80.0 ], [ -30.0, 80.0 ], [ -30.0, 70.0 ], [ -20.0, 70.0 ] ] ] } },
{ "type": "Feature", "properties": { "row": 16, "col": 16 }, "geometry": { "type": "Polygon", "coordinates": [ [ [ -10.0, 70.0 ], [ -10.0, 80.0 ], [ -20.0, 80.0 ], [ -20.0, 70.0 ], [ -10.0, 70.0 ] ] ] } },
{ "type": "Feature", "properties": { "row": 16, "col": 19 }, "geometry": { "type": "Polygon", "coordinates": [ [ [ 20.0, 70.0 ], [ 20.0, 80.0 ], [ 10.0, 80.0 ], [ 10.0, 70.0 ], [ 20.0, 70.0 ] ] ] } },
{ "type": "Feature", "properties": { "row": 16, "col": 20 }, "geometry": { "type": "Polygon", "coordinates": [ [ [ 30.0, 70.0 ], [ 30.0, 80.0 ], [ 20.0, 80.0 ], [ 20.0, 70.0 ], [ 30.0, 70.0 ] ] ] } },
{ "type": "Feature", "properties": { "row": 16, "col": 21 }, "geometry": { "type": "Polygon", "coordinates": [ [ [ 40.0, 70.0 ], [ 40.0, 80.0 ], [ 30.0, 80.0 ], [ 30.0, 70.0 ], [ 40.0, 70.0 ] ] ] } },
{ "type": "Feature", "properties": { "row": 16, "col": 23 }, "geometry": { "type": "Polygon", "coordinates": [ [ [ 60.0, 70.0 ], [ 60.0, 80.0 ], [ 50.0, 80.0 ], [ 50.0, 70.0 ], [ 60.0, 70.0 ] ] ] } },
{ "type": "Feature", "properties": { "row": 16, "col": 24 }, "geometry": { "type": "Polygon", "coordinates": [ [ [ 70.0, 70.0 ], [ 70.0, 80.0 ], [ 60.0, 80.0 ], [ 60.0, 70.0 ], [ 70.0, 70.0 ] ] ] } },
{ "type": "Feature", "properties": { "row": 16, "col": 25 }, "geometry": { "type": "Polygon", "coordinates": [ [ [ 80.0, 70.0 ], [ 80.0, 80.0 ], [ 70.0, 80.0 ], [ 70.0, 70.0 ], [ 80.0, 70.0 ] ] ] } },
{ "type": "Feature", "properties": { "row": 16, "col": 26 }, "geometry": { "type": "Polygon", "coordinates": [ [ [ 90.0, 70.0 ], [ 90.0, 80.0 ], [ 80.0, 80.0 ], [ 80.0, 70.0 ], [ 90.0, 70.0 ] ] ] } },
{ "type": "Feature", "properties": { "row": 16, "col": 27 }, "geometry": { "type": "Polygon", "coordinates": [ [ [ 100.0, 70.0 ], [ 100.0, 80.0 ], [ 90.0, 80.0 ], [ 90.0, 70.0 ], [ 100.0, 70.0 ] ] ] } },
{ "type": "Feature", "properties": { "row": 16, "col": 28 }, "geometry": { "type": "Polygon", "coordinates": [ [ [ 110.0, 70.0 ], [ 110.0, 80.0 ], [ 100.0, 80.0 ], [ 100.0, 70.0 ], [ 110.0, 70.0 ] ] ] } },
{ "type": "Feature", "properties": { "row": 16, "col": 29 }, "geometry": { "type": "Polygon", "coordinates": [ [ [ 120.0, 70.0 ], [ 120.0, 80.0 ], [ 110.0, 80.0 ], [ 110.0, 70.0 ], [ 120.0, 70.0 ] ] ] } },
{ "type": "Feature", "properties": { "row": 16, "col": 30 }, "geometry": { "type": "Polygon", "coordinates": [ [ [ 130.0, 70.0 ], [ 130.0, 80.0 ], [ 120.0, 80.0 ], [ 120.0, 70.0 ], [ 130.0, 70.0 ] ] ] } },
{ "type": "Feature", "properties": { "row": 16, "col": 31 }, "geometry": { "type": "Polygon", "coordinates": [ [ [ 140.0, 70.0 ], [ 140.0, 80.0 ], [ 130.0, 80.0 ], [ 130.0, 70.0 ], [ 140.0, 70.0 ] ] ] } },
{ "type": "Feature", "properties": { "row": 16, "col": 32 }, "geometry": { "type": "Polygon", "coordinates": [ [ [ 150.0, 70.0 ], [ 150.0, 80.0 ], [ 140.0, 80.0 ], [ 140.0, 70.0 ], [ 150.0, 70.0 ] ] ] } },
{ "type": "Feature", "properties": { "row": 16, "col": 33 }, "geometry": { "type": "Polygon", "coordinates": [ [ [ 160.0, 70.0 ], [ 160.0, 80.0 ], [ 150.0, 80.0 ], [ 150.0, 70.0 ], [ 160.0, 70.0 ] ] ] } },
{ "type": "Feature", "properties": { "row": 16, "col": 35 }, "geometry": { "type": "Polygon", "coordinates": [ [ [ 180.0, 70.0 ], [ 180.0, 80.0 ], [ 170.0, 80.0 ], [ 170.0, 70.0 ], [ 180.0, 70.0 ] ] ] } },
{ "type": "Feature", "properties": { "row": 17, "col": 8 }, "geometry": { "type": "Polygon", "coordinates": [ [ [ -90.0, 80.0 ], [ -90.0, 90.0 ], [ -100.0, 90.0 ], [ -100.0, 80.0 ], [ -90.0, 80.0 ] ] ] } },
{ "type": "Feature", "properties": { "row": 17, "col": 9 }, "geometry": { "type": "Polygon", "coordinates": [ [ [ -80.0, 80.0 ], [ -80.0, 90.0 ], [ -90.0, 90.0 ], [ -90.0, 80.0 ], [ -80.0, 80.0 ] ] ] } },
{ "type": "Feature", "properties": { "row": 17, "col": 10 }, "geometry": { "type": "Polygon", "coordinates": [ [ [ -70.0, 80.0 ], [ -70.0, 90.0 ], [ -80.0, 90.0 ], [ -80.0, 80.0 ], [ -70.0, 80.0 ] ] ] } },
{ "type": "Feature", "properties": { "row": 17, "col": 11 }, "geometry": { "type": "Polygon", "coordinates": [ [ [ -60.0, 80.0 ], [ -60.0, 90.0 ], [ -70.0, 90.0 ], [ -70.0, 80.0 ], [ -60.0, 80.0 ] ] ] } },
{ "type": "Feature", "properties": { "row": 17, "col": 12 }, "geometry": { "type": "Polygon", "coordinates": [ [ [ -50.0, 80.0 ], [ -50.0, 90.0 ], [ -60.0, 90.0 ], [ -60.0, 80.0 ], [ -50.0, 80.0 ] ] ] } },
{ "type": "Feature", "properties": { "row": 17, "col": 13 }, "geometry": { "type": "Polygon", "coordinates": [ [ [ -40.0, 80.0 ], [ -40.0, 90.0 ], [ -50.0, 90.0 ], [ -50.0, 80.0 ], [ -40.0, 80.0 ] ] ] } },
{ "type": "Feature", "properties": { "row": 17, "col": 14 }, "geometry": { "type": "Polygon", "coordinates": [ [ [ -30.0, 80.0 ], [ -30.0, 90.0 ], [ -40.0, 90.0 ], [ -40.0, 80.0 ], [ -30.0, 80.0 ] ] ] } },
{ "type": "Feature", "properties": { "row": 17, "col": 15 }, "geometry": { "type": "Polygon", "coordinates": [ [ [ -20.0, 80.0 ], [ -20.0, 90.0 ], [ -30.0, 90.0 ], [ -30.0, 80.0 ], [ -20.0, 80.0 ] ] ] } },
{ "type": "Feature", "properties": { "row": 17, "col": 16 }, "geometry": { "type": "Polygon", "coordinates": [ [ [ -10.0, 80.0 ], [ -10.0, 90.0 ], [ -20.0, 90.0 ], [ -20.0, 80.0 ], [ -10.0, 80.0 ] ] ] } },
{ "type": "Feature", "properties": { "row": 17, "col": 19 }, "geometry": { "type": "Polygon", "coordinates": [ [ [ 20.0, 80.0 ], [ 20.0, 90.0 ], [ 10.0, 90.0 ], [ 10.0, 80.0 ], [ 20.0, 80.0 ] ] ] } },
{ "type": "Feature", "properties": { "row": 17, "col": 20 }, "geometry": { "type": "Polygon", "coordinates": [ [ [ 30.0, 80.0 ], [ 30.0, 90.0 ], [ 20.0, 90.0 ], [ 20.0, 80.0 ], [ 30.0, 80.0 ] ] ] } },
{ "type": "Feature", "properties": { "row": 17, "col": 22 }, "geometry": { "type": "Polygon", "coordinates": [ [ [ 50.0, 80.0 ], [ 50.0, 90.0 ], [ 40.0, 90.0 ], [ 40.0, 80.0 ], [ 50.0, 80.0 ] ] ] } },
{ "type": "Feature", "properties": { "row": 17, "col": 23 }, "geometry": { "type": "Polygon", "coordinates": [ [ [ 60.0, 80.0 ], [ 60.0, 90.0 ], [ 50.0, 90.0 ], [ 50.0, 80.0 ], [ 60.0, 80.0 ] ] ] } },
{ "type": "Feature", "properties": { "row": 17, "col": 27 }, "geometry": { "type": "Polygon", "coordinates": [ [ [ 100.0, 80.0 ], [ 100.0, 90.0 ], [ 90.0, 90.0 ], [ 90.0, 80.0 ], [ 100.0, 80.0 ] ] ] } }
]
}
